"","Branch.Name","Library.Type","Address","Website","Phone.Number","latitude","longitude","Charge","type2","type3","Label"
"1","May Memorial Library (Main)","Library","342 S Spring St Burlington, NC 27215","https://www.alamancelibraries.org/","(336) 229-3588",36.09292619,-79.4365,"Free",NA,"Library","<B>May Memorial Library (Main)</B><br><B>Library</B><br><B>Charge: </B>Free<br><B>Address: </B>342 S Spring St Burlington, NC 27215<br><a href=""https://www.alamancelibraries.org/"" target=""_blank"">Website</a><br>"
"2","Graham Public Library","Library","211 S Main St Graham, NC 27253","https://www.alamancelibraries.org/","(336) 570-6730",36.06761604,-79.4005,"Free",NA,"Library","<B>Graham Public Library</B><br><B>Library</B><br><B>Charge: </B>Free<br><B>Address: </B>211 S Main St Graham, NC 27253<br><a href=""https://www.alamancelibraries.org/"" target=""_blank"">Website</a><br>"
"3","North Park Library / Community Center","Library","849 Sharpe Rd Burlington, NC 27217","https://www.alamancelibraries.org/","(336) 226-7185",36.1149249,-79.4312,"Free",NA,"Library","<B>North Park Library / Community Center</B><br><B>Library</B><br><B>Charge: </B>Free<br><B>Address: </B>849 Sharpe Rd Burlington, NC 27217<br><a href=""https://www.alamancelibraries.org/"" target=""_blank"">Website</a><br>"
"4","Ahoskie Public Library","Library","210 E Church St Ahoskie, NC 27910","https://www.ahoskienc.gov/Library","(252) 332-5500",36.2840185,-76.9854,"Free",NA,"Library","<B>Ahoskie Public Library</B><br><B>Library</B><br><B>Charge: </B>Free<br><B>Address: </B>210 E Church St Ahoskie, NC 27910<br><a href=""https://www.ahoskienc.gov/Library"" target=""_blank"">Website</a><br>"
"5","Hertford County Library","Library","303 W Tryon St Winton, NC 27986","https://arlnc.libguides.com/home","(252) 358-7855",36.39686287,-76.9346,"Free",NA,"Library","<B>Hertford County Library</B><br><B>Library</B><br><B>Charge: </B>Free<br><B>Address: </B>303 W Tryon St Winton, NC 27986<br><a href=""https://arlnc.libguides.com/home"" target=""_blank"">Website</a><br>"
"6","Bertie County Public Library","Library","111 US Hwy 13/17 Bypass Windsor, NC 27983","http://www.co.bertie.nc.us/information/libraries.html","(252) 794-2244",35.97682061,-76.9561,"Free",NA,"Library","<B>Bertie County Public Library</B><br><B>Library</B><br><B>Charge: </B>Free<br><B>Address: </B>111 US Hwy 13/17 Bypass Windsor, NC 27983<br><a href=""http://www.co.bertie.nc.us/information/libraries.html"" target=""_blank"">Website</a><br>"
"7","Northampton County Memorial Library","Library","207 W Jefferson St Jackson, NC 27845","https://www.northamptonnc.com/241/Northampton-Memorial-Library","(252) 534-3571",36.38966551,-77.4217,"Free",NA,"Library","<B>Northampton County Memorial Library</B><br><B>Library</B><br><B>Charge: </B>Free<br><B>Address: </B>207 W Jefferson St Jackson, NC 27845<br><a href=""https://www.northamptonnc.com/241/Northampton-Memorial-Library"" target=""_blank"">Website</a><br>"
"8","Alexander County Library (Main)","Library","77 1st Ave Sw Taylorsville, NC 28681","https://www.alexanderlibrary.org/","(828) 632-4058",35.92087641,-81.1759,"Free",NA,"Library","<B>Alexander County Library (Main)</B><br><B>Library</B><br><B>Charge: </B>Free<br><B>Address: </B>77 1st Ave Sw Taylorsville, NC 28681<br><a href=""https://www.alexanderlibrary.org/"" target=""_blank"">Website</a><br>"
"9","Bethlehem Branch Library","Library","45 Rink Dam Rd Hickory, NC 28601","https://www.alexanderlibrary.org/","(828) 495-8753",35.81555623,-81.3076,"Free",NA,"Library","<B>Bethlehem Branch Library</B><br><B>Library</B><br><B>Charge: </B>Free<br><B>Address: </B>45 Rink Dam Rd Hickory, NC 28601<br><a href=""https://www.alexanderlibrary.org/"" target=""_blank"">Website</a><br>"
"10","Stony Point Branch Library","Library","431 Ruritan Park Rd Stony Point, NC 28678","https://www.alexanderlibrary.org/","(828) 632-4058",35.86197718,-81.0458,"Free",NA,"Library","<B>Stony Point Branch Library</B><br><B>Library</B><br><B>Charge: </B>Free<br><B>Address: </B>431 Ruritan Park Rd Stony Point, NC 28678<br><a href=""https://www.alexanderlibrary.org/"" target=""_blank"">Website</a><br>"
"11","Ashe County Library","Library","148 Library Dr West Jefferson, NC 28694","https://www.arlibrary.org/","(336) 846-2041",36.40028802,-81.4934,"Free",NA,"Library","<B>Ashe County Library</B><br><B>Library</B><br><B>Charge: </B>Free<br><B>Address: </B>148 Library Dr West Jefferson, NC 28694<br><a href=""https://www.arlibrary.org/"" target=""_blank"">Website</a><br>"
"12","Traphill Branch Library","Library","6938 Traphill Rd Traphill, NC 28685","https://www.arlibrary.org/","(336) 957-2534",36.31863839,-81.0555,"Free",NA,"Library","<B>Traphill Branch Library</B><br><B>Library</B><br><B>Charge: </B>Free<br><B>Address: </B>6938 Traphill Rd Traphill, NC 28685<br><a href=""https://www.arlibrary.org/"" target=""_blank"">Website</a><br>"
"13","Watauga County Public Library","Library","140 Queen St Boone, NC 28607","https://www.arlibrary.org/","(828) 264-8784",36.2194521,-81.6827,"Free",NA,"Library","<B>Watauga County Public Library</B><br><B>Library</B><br><B>Charge: </B>Free<br><B>Address: </B>140 Queen St Boone, NC 28607<br><a href=""https://www.arlibrary.org/"" target=""_blank"">Website</a><br>"
"14","Western Watauga Branch Library","Library","1085 Old US Hwy 421 Sugar Grove, NC 28679","https://www.arlibrary.org/","(828) 297-5515",36.26598813,-81.783,"Free",NA,"Library","<B>Western Watauga Branch Library</B><br><B>Library</B><br><B>Charge: </B>Free<br><B>Address: </B>1085 Old US Hwy 421 Sugar Grove, NC 28679<br><a href=""https://www.arlibrary.org/"" target=""_blank"">Website</a><br>"
"15","Wilkes County Library","Library","215 10th St North Wilkesboro, NC 28659","https://www.arlibrary.org/","(336) 838-2818",36.15898006,-81.1479,"Free",NA,"Library","<B>Wilkes County Library</B><br><B>Library</B><br><B>Charge: </B>Free<br><B>Address: </B>215 10th St North Wilkesboro, NC 28659<br><a href=""https://www.arlibrary.org/"" target=""_blank"">Website</a><br>"
"16","Avery-Mitchell-Yancey Regional Library Bookmobile","Library","289 Burnsville School Rd Burnsville, NC 28714","https://www.amyregionallibrary.org/","(828) 682-4476",35.91584936,-82.2647,"Free",NA,"Library","<B>Avery-Mitchell-Yancey Regional Library Bookmobile</B><br><B>Library</B><br><B>Charge: </B>Free<br><B>Address: </B>289 Burnsville School Rd Burnsville, NC 28714<br><a href=""https://www.amyregionallibrary.org/"" target=""_blank"">Website</a><br>"
"17","Mitchell County Library","Library","18 N Mitchell Ave Bakersville, NC 28705","https://www.amyregionallibrary.org/","(828) 688-2511",36.01534065,-82.1581,"Free",NA,"Library","<B>Mitchell County Library</B><br><B>Library</B><br><B>Charge: </B>Free<br><B>Address: </B>18 N Mitchell Ave Bakersville, NC 28705<br><a href=""https://www.amyregionallibrary.org/"" target=""_blank"">Website</a><br>"
"18","Spruce Pine Public Library","Library","142 Walnut Ave Spruce Pine, NC 28777","https://www.amyregionallibrary.org/","(828) 765-4673",35.91656872,-82.0656,"Free",NA,"Library","<B>Spruce Pine Public Library</B><br><B>Library</B><br><B>Charge: </B>Free<br><B>Address: </B>142 Walnut Ave Spruce Pine, NC 28777<br><a href=""https://www.amyregionallibrary.org/"" target=""_blank"">Website</a><br>"
"19","Yancey County Library","Library","321 School Cir Burnsville, NC 28714","https://www.amyregionallibrary.org/","(828) 682-2600",35.9219235,-82.2938,"Free",NA,"Library","<B>Yancey County Library</B><br><B>Library</B><br><B>Charge: </B>Free<br><B>Address: </B>321 School Cir Burnsville, NC 28714<br><a href=""https://www.amyregionallibrary.org/"" target=""_blank"">Website</a><br>"
"20","Bath Community Library","Library","102 S Harding St Bath, NC 27808","https://www.bhmlib.org/","(252) 923-6371",35.47712904,-76.8118,"Free",NA,"Library","<B>Bath Community Library</B><br><B>Library</B><br><B>Charge: </B>Free<br><B>Address: </B>102 S Harding St Bath, NC 27808<br><a href=""https://www.bhmlib.org/"" target=""_blank"">Website</a><br>"
"21","BHM Regional Library","Library","158 N Market St Washington, NC 27889","https://www.bhmlib.org/","(252) 946-6401",35.54303062,-77.0545,"Free",NA,"Library","<B>BHM Regional Library</B><br><B>Library</B><br><B>Charge: </B>Free<br><B>Address: </B>158 N Market St Washington, NC 27889<br><a href=""https://www.bhmlib.org/"" target=""_blank"">Website</a><br>"
"22","Belhaven Public Library","Library","333 E Main St Belhaven, NC 27810","https://www.bhmlib.org/","(252) 943-2993",35.53777119,-76.6202,"Free",NA,"Library","<B>Belhaven Public Library</B><br><B>Library</B><br><B>Charge: </B>Free<br><B>Address: </B>333 E Main St Belhaven, NC 27810<br><a href=""https://www.bhmlib.org/"" target=""_blank"">Website</a><br>"
"23","Hazel W. Guilford Memorial Library","Library","524 Main St Aurora, NC 27806","https://www.bhmlib.org/","(252) 322-5046",35.30462818,-76.789,"Free",NA,"Library","<B>Hazel W. Guilford Memorial Library</B><br><B>Library</B><br><B>Charge: </B>Free<br><B>Address: </B>524 Main St Aurora, NC 27806<br><a href=""https://www.bhmlib.org/"" target=""_blank"">Website</a><br>"
"24","Martin Memorial Library","Library","200 N Smithwick St Williamston, NC 27892","https://www.bhmlib.org/","(252) 792-7476",35.85627921,-77.0558,"Free",NA,"Library","<B>Martin Memorial Library</B><br><B>Library</B><br><B>Charge: </B>Free<br><B>Address: </B>200 N Smithwick St Williamston, NC 27892<br><a href=""https://www.bhmlib.org/"" target=""_blank"">Website</a><br>"
"25","Ocracoke Branch Library","Library","225 Back Rd Ocracoke, NC 27960","https://www.bhmlib.org/","(252) 928-4436",35.11094371,-75.9766,"Free",NA,"Library","<B>Ocracoke Branch Library</B><br><B>Library</B><br><B>Charge: </B>Free<br><B>Address: </B>225 Back Rd Ocracoke, NC 27960<br><a href=""https://www.bhmlib.org/"" target=""_blank"">Website</a><br>"
"26","Robersonville Public Library","Library","119 S Main St Robersonville, NC 27871","https://www.bhmlib.org/","(252) 795-3591",35.82391948,-77.2535,"Free",NA,"Library","<B>Robersonville Public Library</B><br><B>Library</B><br><B>Charge: </B>Free<br><B>Address: </B>119 S Main St Robersonville, NC 27871<br><a href=""https://www.bhmlib.org/"" target=""_blank"">Website</a><br>"
"27","Hyde County Public Library","Library","33460 US Hwy 264 Engelhard, NC 27824","https://www.bhmlib.org/","(252) 925-2222",35.51299078,-76.0225,"Free",NA,"Library","<B>Hyde County Public Library</B><br><B>Library</B><br><B>Charge: </B>Free<br><B>Address: </B>33460 US Hwy 264 Engelhard, NC 27824<br><a href=""https://www.bhmlib.org/"" target=""_blank"">Website</a><br>"
"28","Bladen County Public Library (Main)","Library","111 N Cypress St Elizabethtown, NC 28337","https://bladenco.libguides.com/home","(910) 862-6990",34.628612,-78.6041,"Free",NA,"Library","<B>Bladen County Public Library (Main)</B><br><B>Library</B><br><B>Charge: </B>Free<br><B>Address: </B>111 N Cypress St Elizabethtown, NC 28337<br><a href=""https://bladenco.libguides.com/home"" target=""_blank"">Website</a><br>"
"29","Bridger Memorial Library","Library","313 S Main St Bladenboro, NC 28320","https://bladenco.libguides.com/home","(910) 863-4586",34.53697083,-78.7899,"Free",NA,"Library","<B>Bridger Memorial Library</B><br><B>Library</B><br><B>Charge: </B>Free<br><B>Address: </B>313 S Main St Bladenboro, NC 28320<br><a href=""https://bladenco.libguides.com/home"" target=""_blank"">Website</a><br>"
"30","Bladen County Public Library Bookmobile","Library","111 N Cypress St Elizabethtown, NC 28337","https://bladenco.libguides.com/home","(910) 862-6990",34.628612,-78.6041,"Free",NA,"Library","<B>Bladen County Public Library Bookmobile</B><br><B>Library</B><br><B>Charge: </B>Free<br><B>Address: </B>111 N Cypress St Elizabethtown, NC 28337<br><a href=""https://bladenco.libguides.com/home"" target=""_blank"">Website</a><br>"
"31","Clarkton Public Library","Library","10413 N College St Clarkton, NC 28433","https://bladenco.libguides.com/home","(910) 647-3661",34.4889382,-78.6552,"Free",NA,"Library","<B>Clarkton Public Library</B><br><B>Library</B><br><B>Charge: </B>Free<br><B>Address: </B>10413 N College St Clarkton, NC 28433<br><a href=""https://bladenco.libguides.com/home"" target=""_blank"">Website</a><br>"
"32","Braswell Memorial Public Library (Main)","Library","727 N Grace St Rocky Mount, NC 27804","https://braswell-library.libguides.com/home","(252) 442-1951",35.94976459,-77.7972,"Free",NA,"Library","<B>Braswell Memorial Public Library (Main)</B><br><B>Library</B><br><B>Charge: </B>Free<br><B>Address: </B>727 N Grace St Rocky Mount, NC 27804<br><a href=""https://braswell-library.libguides.com/home"" target=""_blank"">Website</a><br>"
"33","Wesley Privette Memorial Library","Library","6280 Main St Bailey, NC 27807","https://braswell-library.libguides.com/home","(252) 235-6006",35.77912785,-78.1161,"Free",NA,"Library","<B>Wesley Privette Memorial Library</B><br><B>Library</B><br><B>Charge: </B>Free<br><B>Address: </B>6280 Main St Bailey, NC 27807<br><a href=""https://braswell-library.libguides.com/home"" target=""_blank"">Website</a><br>"
"34","Whitakers Public Library","Library","106 W Pippen St Whitakers, NC 27891","https://braswell-library.libguides.com/home","(252) 437-1100",36.10564669,-77.7132,"Free",NA,"Library","<B>Whitakers Public Library</B><br><B>Library</B><br><B>Charge: </B>Free<br><B>Address: </B>106 W Pippen St Whitakers, NC 27891<br><a href=""https://braswell-library.libguides.com/home"" target=""_blank"">Website</a><br>"
"35","Middlesex Public Library","Library","12480 W Hanes Ave Middlesex, NC 27557","https://braswell-library.libguides.com/home","(252) 235-6001",35.7896564,-78.2101,"Free",NA,"Library","<B>Middlesex Public Library</B><br><B>Library</B><br><B>Charge: </B>Free<br><B>Address: </B>12480 W Hanes Ave Middlesex, NC 27557<br><a href=""https://braswell-library.libguides.com/home"" target=""_blank"">Website</a><br>"
"36","Spring Hope Public Library","Library","101 N Ash St Spring Hope, NC 27882","https://braswell-library.libguides.com/home","(252) 478-3377",35.9436633,-78.1124,"Free",NA,"Library","<B>Spring Hope Public Library</B><br><B>Library</B><br><B>Charge: </B>Free<br><B>Address: </B>101 N Ash St Spring Hope, NC 27882<br><a href=""https://braswell-library.libguides.com/home"" target=""_blank"">Website</a><br>"
"37","Harper Library","Library","109 W Moore St Southport, NC 28461","https://www.brunswickcountync.gov/library/","(910) 457-6237",33.91812353,-78.0195,"Free",NA,"Library","<B>Harper Library</B><br><B>Library</B><br><B>Charge: </B>Free<br><B>Address: </B>109 W Moore St Southport, NC 28461<br><a href=""https://www.brunswickcountync.gov/library/"" target=""_blank"">Website</a><br>"
"38","Leland Branch Library","Library","487 Village Rd Leland, NC 28451","https://www.brunswickcountync.gov/library/","(910) 371-9442",34.23842251,-78.0074,"Free",NA,"Library","<B>Leland Branch Library</B><br><B>Library</B><br><B>Charge: </B>Free<br><B>Address: </B>487 Village Rd Leland, NC 28451<br><a href=""https://www.brunswickcountync.gov/library/"" target=""_blank"">Website</a><br>"
"39","G. V. Barbee, Sr. Library","Library","8200 E Oak Island Dr Oak Island, NC 28465","https://www.brunswickcountync.gov/library/","(910) 278-4283",33.90888043,-78.0829,"Free",NA,"Library","<B>G. V. Barbee, Sr. Library</B><br><B>Library</B><br><B>Charge: </B>Free<br><B>Address: </B>8200 E Oak Island Dr Oak Island, NC 28465<br><a href=""https://www.brunswickcountync.gov/library/"" target=""_blank"">Website</a><br>"
"40","Rourk Branch Library","Library","5068 Main St Shallotte, NC 28459","https://www.brunswickcountync.gov/library/","(910) 754-6578",33.96440974,-78.3966,"Free",NA,"Library","<B>Rourk Branch Library</B><br><B>Library</B><br><B>Charge: </B>Free<br><B>Address: </B>5068 Main St Shallotte, NC 28459<br><a href=""https://www.brunswickcountync.gov/library/"" target=""_blank"">Website</a><br>"
"41","Southwest Brunswick Branch Library","Library","9400 Ocean Hwy West Carolina Shores, NC 28467","https://www.brunswickcountync.gov/library/","(910) 575-0173",33.92266046,-78.5763,"Free",NA,"Library","<B>Southwest Brunswick Branch Library</B><br><B>Library</B><br><B>Charge: </B>Free<br><B>Address: </B>9400 Ocean Hwy West Carolina Shores, NC 28467<br><a href=""https://www.brunswickcountync.gov/library/"" target=""_blank"">Website</a><br>"
"42","Pack Memorial Library (Main)","Library","67 Haywood St Asheville, NC 28801","https://www.buncombecounty.org/governing/depts/library/","(828) 250-4700",35.59674847,-82.5554,"Free",NA,"Library","<B>Pack Memorial Library (Main)</B><br><B>Library</B><br><B>Charge: </B>Free<br><B>Address: </B>67 Haywood St Asheville, NC 28801<br><a href=""https://www.buncombecounty.org/governing/depts/library/"" target=""_blank"">Website</a><br>"
"43","Black Mountain Branch Library","Library","105 Dougherty St Black Mountain, NC 28711","https://www.buncombecounty.org/governing/depts/library/","(828) 250-4756",35.61589373,-82.3221,"Free",NA,"Library","<B>Black Mountain Branch Library</B><br><B>Library</B><br><B>Charge: </B>Free<br><B>Address: </B>105 Dougherty St Black Mountain, NC 28711<br><a href=""https://www.buncombecounty.org/governing/depts/library/"" target=""_blank"">Website</a><br>"
"44","Buncombe County Law Library","Library","60 Court Plz Asheville, NC 28801","https://www.buncombecounty.org/governing/depts/library/","(828) 250-4735",35.5956717,-82.5488,"Free",NA,"Library","<B>Buncombe County Law Library</B><br><B>Library</B><br><B>Charge: </B>Free<br><B>Address: </B>60 Court Plz Asheville, NC 28801<br><a href=""https://www.buncombecounty.org/governing/depts/library/"" target=""_blank"">Website</a><br>"
"45","East Asheville Branch Library","Library","902 Tunnel Rd Asheville, NC 28805","https://www.buncombecounty.org/governing/depts/library/","(828) 250-4738",35.587364,-82.5029,"Free",NA,"Library","<B>East Asheville Branch Library</B><br><B>Library</B><br><B>Charge: </B>Free<br><B>Address: </B>902 Tunnel Rd Asheville, NC 28805<br><a href=""https://www.buncombecounty.org/governing/depts/library/"" target=""_blank"">Website</a><br>"
"46","Fairview Branch Library","Library","1 Taylor Rd Fairview, NC 28730","https://www.buncombecounty.org/governing/depts/library/","(828) 250-6484",35.52468934,-82.4139,"Free",NA,"Library","<B>Fairview Branch Library</B><br><B>Library</B><br><B>Charge: </B>Free<br><B>Address: </B>1 Taylor Rd Fairview, NC 28730<br><a href=""https://www.buncombecounty.org/governing/depts/library/"" target=""_blank"">Website</a><br>"
"47","Leicester Branch Library","Library","1561 Alexander Rd Leicester, NC 28748","https://www.buncombecounty.org/governing/depts/library/","(828) 250-6480",35.65831567,-82.6933,"Free",NA,"Library","<B>Leicester Branch Library</B><br><B>Library</B><br><B>Charge: </B>Free<br><B>Address: </B>1561 Alexander Rd Leicester, NC 28748<br><a href=""https://www.buncombecounty.org/governing/depts/library/"" target=""_blank"">Website</a><br>"
"48","North Asheville Branch Library","Library","1230 Merrimon Ave Asheville, NC 28804","https://www.buncombecounty.org/governing/depts/library/","(828) 250-4752",35.63578263,-82.5637,"Free",NA,"Library","<B>North Asheville Branch Library</B><br><B>Library</B><br><B>Charge: </B>Free<br><B>Address: </B>1230 Merrimon Ave Asheville, NC 28804<br><a href=""https://www.buncombecounty.org/governing/depts/library/"" target=""_blank"">Website</a><br>"
"49","South Asheville Branch Library","Library","749 Fairview Rd Asheville, NC 28803","https://www.buncombecounty.org/governing/depts/library/","(828) 250-4754",35.56447485,-82.5132,"Free",NA,"Library","<B>South Asheville Branch Library</B><br><B>Library</B><br><B>Charge: </B>Free<br><B>Address: </B>749 Fairview Rd Asheville, NC 28803<br><a href=""https://www.buncombecounty.org/governing/depts/library/"" target=""_blank"">Website</a><br>"
"50","South Buncombe - Skyland Library","Library","260 Overlook Rd Skyland, NC 28776","https://www.buncombecounty.org/governing/depts/library/","(828) 250-6488",35.48765265,-82.5377,"Free",NA,"Library","<B>South Buncombe - Skyland Library</B><br><B>Library</B><br><B>Charge: </B>Free<br><B>Address: </B>260 Overlook Rd Skyland, NC 28776<br><a href=""https://www.buncombecounty.org/governing/depts/library/"" target=""_blank"">Website</a><br>"
"51","Swannanoa Branch Library","Library","101 W Charleston St Swannonoa, NC 28778","https://www.buncombecounty.org/governing/depts/library/","(828) 250-6486",35.60943445,-82.3858,"Free",NA,"Library","<B>Swannanoa Branch Library</B><br><B>Library</B><br><B>Charge: </B>Free<br><B>Address: </B>101 W Charleston St Swannonoa, NC 28778<br><a href=""https://www.buncombecounty.org/governing/depts/library/"" target=""_blank"">Website</a><br>"
"52","Weaverville Library","Library","41 N Main St Weaverville, NC 28787","https://www.buncombecounty.org/governing/depts/library/","(828) 250-6482",35.69895044,-82.5604,"Free",NA,"Library","<B>Weaverville Library</B><br><B>Library</B><br><B>Charge: </B>Free<br><B>Address: </B>41 N Main St Weaverville, NC 28787<br><a href=""https://www.buncombecounty.org/governing/depts/library/"" target=""_blank"">Website</a><br>"
"53","West Asheville Branch Library","Library","942 Haywood Rd Asheville, NC 28806","https://www.buncombecounty.org/governing/depts/library/","(828) 250-4750",35.58096697,-82.6012,"Free",NA,"Library","<B>West Asheville Branch Library</B><br><B>Library</B><br><B>Charge: </B>Free<br><B>Address: </B>942 Haywood Rd Asheville, NC 28806<br><a href=""https://www.buncombecounty.org/governing/depts/library/"" target=""_blank"">Website</a><br>"
"54","Burke County Public Library (Main)","Library","204 S King St Morganton, NC 28655","https://www.bcpls.org/","(828) 764-9260",35.74292217,-81.6868,"Free",NA,"Library","<B>Burke County Public Library (Main)</B><br><B>Library</B><br><B>Charge: </B>Free<br><B>Address: </B>204 S King St Morganton, NC 28655<br><a href=""https://www.bcpls.org/"" target=""_blank"">Website</a><br>"
"55","C. B. Hildebrand Public Library","Library","101B Main Ave West Hildebran, NC 28637","https://www.bcpls.org/","(828) 764-9283",35.7101969,-81.4255,"Free",NA,"Library","<B>C. B. Hildebrand Public Library</B><br><B>Library</B><br><B>Charge: </B>Free<br><B>Address: </B>101B Main Ave West Hildebran, NC 28637<br><a href=""https://www.bcpls.org/"" target=""_blank"">Website</a><br>"
"56","Valdese Public Library","Library","213 Saint Germain Ave Se Valdese, NC 28690","https://www.bcpls.org/","(828) 874-2421",35.7417501,-81.5613,"Free",NA,"Library","<B>Valdese Public Library</B><br><B>Library</B><br><B>Charge: </B>Free<br><B>Address: </B>213 Saint Germain Ave Se Valdese, NC 28690<br><a href=""https://www.bcpls.org/"" target=""_blank"">Website</a><br>"
"57","Cabarrus County Public Library (Main)","Library","27 Union St N Concord, NC 28025","https://www.cabarruscounty.us/departments/library","(704) 920-2050",35.41109029,-80.5821,"Free",NA,"Library","<B>Cabarrus County Public Library (Main)</B><br><B>Library</B><br><B>Charge: </B>Free<br><B>Address: </B>27 Union St N Concord, NC 28025<br><a href=""https://www.cabarruscounty.us/departments/library"" target=""_blank"">Website</a><br>"
"58","Kannapolis Branch Library","Library","850 Mountain St Kannapolis, NC 28081","https://www.cabarruscounty.us/departments/library","(704) 920-1180",35.50469843,-80.6352,"Free",NA,"Library","<B>Kannapolis Branch Library</B><br><B>Library</B><br><B>Charge: </B>Free<br><B>Address: </B>850 Mountain St Kannapolis, NC 28081<br><a href=""https://www.cabarruscounty.us/departments/library"" target=""_blank"">Website</a><br>"
"59","Midland Branch Library","Library","4297 Highway 24/27 Suite C Midland, NC 28107","https://www.cabarruscounty.us/departments/library","(704) 920-2040",35.25146588,-80.5022,"Free",NA,"Library","<B>Midland Branch Library</B><br><B>Library</B><br><B>Charge: </B>Free<br><B>Address: </B>4297 Highway 24/27 Suite C Midland, NC 28107<br><a href=""https://www.cabarruscounty.us/departments/library"" target=""_blank"">Website</a><br>"
"60","Mt. Pleasant Branch Library","Library","8556 Cook St Mount Pleasant, NC 28124","https://www.cabarruscounty.us/departments/library","(704) 920-2202",35.40330453,-80.4332,"Free",NA,"Library","<B>Mt. Pleasant Branch Library</B><br><B>Library</B><br><B>Charge: </B>Free<br><B>Address: </B>8556 Cook St Mount Pleasant, NC 28124<br><a href=""https://www.cabarruscounty.us/departments/library"" target=""_blank"">Website</a><br>"
"61","Harrisburg Library","Library","201 Sims Pkwy Harrisburg, NC 28075","https://www.cabarruscounty.us/departments/library","(704) 920-2080",35.3194623,-80.6597,"Free",NA,"Library","<B>Harrisburg Library</B><br><B>Library</B><br><B>Charge: </B>Free<br><B>Address: </B>201 Sims Pkwy Harrisburg, NC 28075<br><a href=""https://www.cabarruscounty.us/departments/library"" target=""_blank"">Website</a><br>"
"62","Caldwell County Public Library (Main)","Library","120 Hospital Ave Lenoir, NC 28645","https://ccpl.libguides.com/mainpage","(828) 757-1270",35.92197729,-81.5246,"Free",NA,"Library","<B>Caldwell County Public Library (Main)</B><br><B>Library</B><br><B>Charge: </B>Free<br><B>Address: </B>120 Hospital Ave Lenoir, NC 28645<br><a href=""https://ccpl.libguides.com/mainpage"" target=""_blank"">Website</a><br>"
"63","Granite Falls Branch Library","Library","24 S Main St Granite Falls, NC 28630","https://ccpl.libguides.com/mainpage","(828) 396-7703",35.79845454,-81.4329,"Free",NA,"Library","<B>Granite Falls Branch Library</B><br><B>Library</B><br><B>Charge: </B>Free<br><B>Address: </B>24 S Main St Granite Falls, NC 28630<br><a href=""https://ccpl.libguides.com/mainpage"" target=""_blank"">Website</a><br>"
"64","Hudson Branch Library","Library","530 Central St Hudson, NC 28638","https://ccpl.libguides.com/mainpage","(828) 728-4207",35.84773733,-81.4955,"Free",NA,"Library","<B>Hudson Branch Library</B><br><B>Library</B><br><B>Charge: </B>Free<br><B>Address: </B>530 Central St Hudson, NC 28638<br><a href=""https://ccpl.libguides.com/mainpage"" target=""_blank"">Website</a><br>"
"65","Bogue Banks Public Library","Library","320 Salter Path Rd Pine Knoll Shores, NC 28512","https://www.carteretcountypubliclibrary.org/","(252) 247-4660",34.69473795,-76.8239,"Free",NA,"Library","<B>Bogue Banks Public Library</B><br><B>Library</B><br><B>Charge: </B>Free<br><B>Address: </B>320 Salter Path Rd Pine Knoll Shores, NC 28512<br><a href=""https://www.carteretcountypubliclibrary.org/"" target=""_blank"">Website</a><br>"
"66","Carteret County Public Library","Library","1702 Live Oak St. Suite 100 Beaufort, NC 28516","https://www.carteretcountypubliclibrary.org/","(252) 728-2050",34.72844747,-76.6407,"Free",NA,"Library","<B>Carteret County Public Library</B><br><B>Library</B><br><B>Charge: </B>Free<br><B>Address: </B>1702 Live Oak St. Suite 100 Beaufort, NC 28516<br><a href=""https://www.carteretcountypubliclibrary.org/"" target=""_blank"">Website</a><br>"
"67","Down East Public Library","Library","108 Straits Road Beaufort, NC 28516","https://www.carteretcountypubliclibrary.org/","(252) 728-1333",34.73370582,-76.5594,"Free",NA,"Library","<B>Down East Public Library</B><br><B>Library</B><br><B>Charge: </B>Free<br><B>Address: </B>108 Straits Road Beaufort, NC 28516<br><a href=""https://www.carteretcountypubliclibrary.org/"" target=""_blank"">Website</a><br>"
"68","Newport Public Library","Library","210 Howard Blvd Newport, NC 28570","https://www.carteretcountypubliclibrary.org/","(252) 223-5108",34.78763619,-76.8641,"Free",NA,"Library","<B>Newport Public Library</B><br><B>Library</B><br><B>Charge: </B>Free<br><B>Address: </B>210 Howard Blvd Newport, NC 28570<br><a href=""https://www.carteretcountypubliclibrary.org/"" target=""_blank"">Website</a><br>"
"69","Western Carteret Library","Library","230 Taylor Notion Rd Cape Carteret, NC 28584","https://www.carteretcountypubliclibrary.org/","(252) 393-6500",34.69746811,-77.0574,"Free",NA,"Library","<B>Western Carteret Library</B><br><B>Library</B><br><B>Charge: </B>Free<br><B>Address: </B>230 Taylor Notion Rd Cape Carteret, NC 28584<br><a href=""https://www.carteretcountypubliclibrary.org/"" target=""_blank"">Website</a><br>"
"70","Gunn Memorial Public Library","Library","161 Main St E Yanceyville, NC 27379","https://www.caswellcountync.gov/library","(336) 694-6241",36.40400104,-79.3331,"Free",NA,"Library","<B>Gunn Memorial Public Library</B><br><B>Library</B><br><B>Charge: </B>Free<br><B>Address: </B>161 Main St E Yanceyville, NC 27379<br><a href=""https://www.caswellcountync.gov/library"" target=""_blank"">Website</a><br>"
"71","Conover Branch Library","Library","403 Conover Station Se Conover, NC 28613","https://www.catawbacountync.gov/county-services/library/","(828) 466-5108",35.7016996,-81.2189,"Free",NA,"Library","<B>Conover Branch Library</B><br><B>Library</B><br><B>Charge: </B>Free<br><B>Address: </B>403 Conover Station Se Conover, NC 28613<br><a href=""https://www.catawbacountync.gov/county-services/library/"" target=""_blank"">Website</a><br>"
"72","Catawba County Library (Main)","Library","115 W C St Newton, NC 28658","https://www.catawbacountync.gov/county-services/library/","(828) 465-8664",35.6617794,-81.2251,"Free",NA,"Library","<B>Catawba County Library (Main)</B><br><B>Library</B><br><B>Charge: </B>Free<br><B>Address: </B>115 W C St Newton, NC 28658<br><a href=""https://www.catawbacountync.gov/county-services/library/"" target=""_blank"">Website</a><br>"
"73","Maiden Branch Library","Library","11 S A Ave Maiden, NC 28650","https://www.catawbacountync.gov/county-services/library/","(828) 428-2712",35.57688478,-81.2154,"Free",NA,"Library","<B>Maiden Branch Library</B><br><B>Library</B><br><B>Charge: </B>Free<br><B>Address: </B>11 S A Ave Maiden, NC 28650<br><a href=""https://www.catawbacountync.gov/county-services/library/"" target=""_blank"">Website</a><br>"
"74","Sherrills Ford-Terrell Branch","Library","9154 Sherrills Ford Rd Terrell, NC 28682","https://www.catawbacountync.gov/county-services/library/","(828) 466-6827",35.59144396,-80.9793,"Free",NA,"Library","<B>Sherrills Ford-Terrell Branch</B><br><B>Library</B><br><B>Charge: </B>Free<br><B>Address: </B>9154 Sherrills Ford Rd Terrell, NC 28682<br><a href=""https://www.catawbacountync.gov/county-services/library/"" target=""_blank"">Website</a><br>"
"75","Southwest Branch Library","Library","2944 S NC 127 Hwy Hickory, NC 28602","https://www.catawbacountync.gov/county-services/library/","(828) 466-6818",35.69057316,-81.3585,"Free",NA,"Library","<B>Southwest Branch Library</B><br><B>Library</B><br><B>Charge: </B>Free<br><B>Address: </B>2944 S NC 127 Hwy Hickory, NC 28602<br><a href=""https://www.catawbacountync.gov/county-services/library/"" target=""_blank"">Website</a><br>"
"76","St. Stephens Branch Library","Library","3225 Springs Rd Hickory, NC 28601","https://www.catawbacountync.gov/county-services/library/","(828) 466-6821",35.7588413,-81.2724,"Free",NA,"Library","<B>St. Stephens Branch Library</B><br><B>Library</B><br><B>Charge: </B>Free<br><B>Address: </B>3225 Springs Rd Hickory, NC 28601<br><a href=""https://www.catawbacountync.gov/county-services/library/"" target=""_blank"">Website</a><br>"
"77","Claremont Branch Library","Library","3288 E Main St Claremont, NC 28610","https://www.catawbacountync.gov/county-services/library/","(828) 466-6817",35.71545784,-81.1457,"Free",NA,"Library","<B>Claremont Branch Library</B><br><B>Library</B><br><B>Charge: </B>Free<br><B>Address: </B>3288 E Main St Claremont, NC 28610<br><a href=""https://www.catawbacountync.gov/county-services/library/"" target=""_blank"">Website</a><br>"
"78","Chapel Hill Public Library","Library","100 Library Dr Chapel Hill, NC 27514","https://www.chapelhillpubliclibrary.org/","(919) 968-2777",35.93079061,-79.0363,"Free",NA,"Library","<B>Chapel Hill Public Library</B><br><B>Library</B><br><B>Charge: </B>Free<br><B>Address: </B>100 Library Dr Chapel Hill, NC 27514<br><a href=""https://www.chapelhillpubliclibrary.org/"" target=""_blank"">Website</a><br>"
"79","Beatties Ford Road Regional Library","Library","2412 Beatties Ford Rd Charlotte, NC 28216","https://www.cmlibrary.org/","(704) 416-3000",35.26747446,-80.8539,"Free",NA,"Library","<B>Beatties Ford Road Regional Library</B><br><B>Library</B><br><B>Charge: </B>Free<br><B>Address: </B>2412 Beatties Ford Rd Charlotte, NC 28216<br><a href=""https://www.cmlibrary.org/"" target=""_blank"">Website</a><br>"
"80","Cornelius Branch Library","Library","21105 Catawba Ave Cornelius, NC 28031","https://www.cmlibrary.org/","(704) 416-3800",35.48316462,-80.8644,"Free",NA,"Library","<B>Cornelius Branch Library</B><br><B>Library</B><br><B>Charge: </B>Free<br><B>Address: </B>21105 Catawba Ave Cornelius, NC 28031<br><a href=""https://www.cmlibrary.org/"" target=""_blank"">Website</a><br>"
"81","Davidson Branch Library","Library","119 S Main St Davidson, NC 28036","https://www.cmlibrary.org/","(704) 416-4000",35.4989581,-80.8485,"Free",NA,"Library","<B>Davidson Branch Library</B><br><B>Library</B><br><B>Charge: </B>Free<br><B>Address: </B>119 S Main St Davidson, NC 28036<br><a href=""https://www.cmlibrary.org/"" target=""_blank"">Website</a><br>"
"82","Hickory Grove Branch Library","Library","5935 Hickory Grove Rd Charlotte, NC 28215","https://www.cmlibrary.org/","(704) 416-4400",35.2227617,-80.7283,"Free",NA,"Library","<B>Hickory Grove Branch Library</B><br><B>Library</B><br><B>Charge: </B>Free<br><B>Address: </B>5935 Hickory Grove Rd Charlotte, NC 28215<br><a href=""https://www.cmlibrary.org/"" target=""_blank"">Website</a><br>"
"83","Independence Regional Library","Library","6015 Conference Dr Charlotte, NC 28212","https://www.cmlibrary.org/","(704) 416-4800",35.1786533,-80.7554,"Free",NA,"Library","<B>Independence Regional Library</B><br><B>Library</B><br><B>Charge: </B>Free<br><B>Address: </B>6015 Conference Dr Charlotte, NC 28212<br><a href=""https://www.cmlibrary.org/"" target=""_blank"">Website</a><br>"
"84","Charlotte Mecklenburg Library (Main)","Library","310 N Tryon St Charlotte, NC 28202","https://www.cmlibrary.org/","(704) 416-0600",35.22883494,-80.8406,"Free",NA,"Library","<B>Charlotte Mecklenburg Library (Main)</B><br><B>Library</B><br><B>Charge: </B>Free<br><B>Address: </B>310 N Tryon St Charlotte, NC 28202<br><a href=""https://www.cmlibrary.org/"" target=""_blank"">Website</a><br>"
"85","Matthews Branch Library","Library","230 Matthews Station St Matthews, NC 28105","https://www.cmlibrary.org/","(704) 416-5000",35.11649943,-80.7187,"Free",NA,"Library","<B>Matthews Branch Library</B><br><B>Library</B><br><B>Charge: </B>Free<br><B>Address: </B>230 Matthews Station St Matthews, NC 28105<br><a href=""https://www.cmlibrary.org/"" target=""_blank"">Website</a><br>"
"86","Mint Hill Branch Library","Library","6840 Matthews-Mint Hill Rd Charlotte, NC 28227","https://www.cmlibrary.org/","(704) 416-5200",35.17193223,-80.6593,"Free",NA,"Library","<B>Mint Hill Branch Library</B><br><B>Library</B><br><B>Charge: </B>Free<br><B>Address: </B>6840 Matthews-Mint Hill Rd Charlotte, NC 28227<br><a href=""https://www.cmlibrary.org/"" target=""_blank"">Website</a><br>"
"87","Morrison Regional Library","Library","7015 Morrison Blvd Charlotte, NC 28211","https://www.cmlibrary.org/","(704) 416-5400",35.15092928,-80.8237,"Free",NA,"Library","<B>Morrison Regional Library</B><br><B>Library</B><br><B>Charge: </B>Free<br><B>Address: </B>7015 Morrison Blvd Charlotte, NC 28211<br><a href=""https://www.cmlibrary.org/"" target=""_blank"">Website</a><br>"
"88","Mountain Island Branch Library","Library","4420 Hoyt Galvin Wy Charlotte, NC 28214","https://www.cmlibrary.org/","(704) 416-5600",35.33490175,-80.9608,"Free",NA,"Library","<B>Mountain Island Branch Library</B><br><B>Library</B><br><B>Charge: </B>Free<br><B>Address: </B>4420 Hoyt Galvin Wy Charlotte, NC 28214<br><a href=""https://www.cmlibrary.org/"" target=""_blank"">Website</a><br>"
"89","Myers Park Branch Library","Library","1361 Queens Rd Charlotte, NC 28207","https://www.cmlibrary.org/","(704) 416-5800",35.19624212,-80.8277,"Free",NA,"Library","<B>Myers Park Branch Library</B><br><B>Library</B><br><B>Charge: </B>Free<br><B>Address: </B>1361 Queens Rd Charlotte, NC 28207<br><a href=""https://www.cmlibrary.org/"" target=""_blank"">Website</a><br>"
"90","North County Regional Library","Library","16500 Holly Crest Ln Huntersville, NC 28078","https://www.cmlibrary.org/","(704) 416-6000",35.43981399,-80.8635,"Free",NA,"Library","<B>North County Regional Library</B><br><B>Library</B><br><B>Charge: </B>Free<br><B>Address: </B>16500 Holly Crest Ln Huntersville, NC 28078<br><a href=""https://www.cmlibrary.org/"" target=""_blank"">Website</a><br>"
"91","Plaza Midwood Branch Library","Library","1623 Central Ave Charlotte, NC 28205","https://www.cmlibrary.org/","(704) 416-6200",35.22037105,-80.8118,"Free",NA,"Library","<B>Plaza Midwood Branch Library</B><br><B>Library</B><br><B>Charge: </B>Free<br><B>Address: </B>1623 Central Ave Charlotte, NC 28205<br><a href=""https://www.cmlibrary.org/"" target=""_blank"">Website</a><br>"
"92","South Boulevard Library","Library","4429 South Blvd Charlotte, NC 28209","https://www.cmlibrary.org/","(704) 416-6400",35.18276441,-80.8757,"Free",NA,"Library","<B>South Boulevard Library</B><br><B>Library</B><br><B>Charge: </B>Free<br><B>Address: </B>4429 South Blvd Charlotte, NC 28209<br><a href=""https://www.cmlibrary.org/"" target=""_blank"">Website</a><br>"
"93","South County Regional Library","Library","5801 Rea Rd Charlotte, NC 28277","https://www.cmlibrary.org/","(704) 416-6600",35.08742453,-80.8118,"Free",NA,"Library","<B>South County Regional Library</B><br><B>Library</B><br><B>Charge: </B>Free<br><B>Address: </B>5801 Rea Rd Charlotte, NC 28277<br><a href=""https://www.cmlibrary.org/"" target=""_blank"">Website</a><br>"
"94","Steele Creek Branch Library","Library","13620 Steele Creek Rd Charlotte, NC 28273","https://www.cmlibrary.org/","(704) 416-6800",35.1081665,-80.9882,"Free",NA,"Library","<B>Steele Creek Branch Library</B><br><B>Library</B><br><B>Charge: </B>Free<br><B>Address: </B>13620 Steele Creek Rd Charlotte, NC 28273<br><a href=""https://www.cmlibrary.org/"" target=""_blank"">Website</a><br>"
"95","Sugar Creek Branch Library","Library","4045 N Tryon St Charlotte, NC 28206","https://www.cmlibrary.org/","(704) 416-7000",35.25667352,-80.7979,"Free",NA,"Library","<B>Sugar Creek Branch Library</B><br><B>Library</B><br><B>Charge: </B>Free<br><B>Address: </B>4045 N Tryon St Charlotte, NC 28206<br><a href=""https://www.cmlibrary.org/"" target=""_blank"">Website</a><br>"
"96","University City Regional Library","Library","301 E W T Harris Rd Charlotte, NC 28262","https://www.cmlibrary.org/","(704) 416-7200",35.30757954,-80.7525,"Free",NA,"Library","<B>University City Regional Library</B><br><B>Library</B><br><B>Charge: </B>Free<br><B>Address: </B>301 E W T Harris Rd Charlotte, NC 28262<br><a href=""https://www.cmlibrary.org/"" target=""_blank"">Website</a><br>"
"97","West Boulevard Branch Library","Library","2157 West Blvd Charlotte, NC 28208","https://www.cmlibrary.org/","(704) 416-7400",35.21156135,-80.8966,"Free",NA,"Library","<B>West Boulevard Branch Library</B><br><B>Library</B><br><B>Charge: </B>Free<br><B>Address: </B>2157 West Blvd Charlotte, NC 28208<br><a href=""https://www.cmlibrary.org/"" target=""_blank"">Website</a><br>"
"98","SouthPark Regional Library","Library","7015 Carnegie Blvd Charlotte Charlotte, NC 28211","https://www.cmlibrary.org","Ê704416-5400",35.15096228,-80.8237,"Free",NA,"Library","<B>SouthPark Regional Library</B><br><B>Library</B><br><B>Charge: </B>Free<br><B>Address: </B>7015 Carnegie Blvd Charlotte Charlotte, NC 28211<br><a href=""https://www.cmlibrary.org"" target=""_blank"">Website</a><br>"
"99","Goldston Public Library","Library","9235 Pittsboro-Goldston Rd Goldston, NC 27252","https://www.chathamcountync.gov/government/departments-programs-i-z/library","(919) 898-4522",35.59579392,-79.3283,"Free",NA,"Library","<B>Goldston Public Library</B><br><B>Library</B><br><B>Charge: </B>Free<br><B>Address: </B>9235 Pittsboro-Goldston Rd Goldston, NC 27252<br><a href=""https://www.chathamcountync.gov/government/departments-programs-i-z/library"" target=""_blank"">Website</a><br>"
"100","Chatham Community Library (Main)","Library","197 NC Hwy 87 N Pittsboro, NC 27312","https://www.chathamcountync.gov/government/departments-programs-i-z/library","(919) 545-8084",35.72323827,-79.187,"Free",NA,"Library","<B>Chatham Community Library (Main)</B><br><B>Library</B><br><B>Charge: </B>Free<br><B>Address: </B>197 NC Hwy 87 N Pittsboro, NC 27312<br><a href=""https://www.chathamcountync.gov/government/departments-programs-i-z/library"" target=""_blank"">Website</a><br>"
"101","Wren Memorial Library","Library","500 N 2nd Ave Siler City, NC 27344","https://www.chathamcountync.gov/government/departments-programs-i-z/library","(919) 742-2016",35.72735204,-79.4647,"Free",NA,"Library","<B>Wren Memorial Library</B><br><B>Library</B><br><B>Charge: </B>Free<br><B>Address: </B>500 N 2nd Ave Siler City, NC 27344<br><a href=""https://www.chathamcountync.gov/government/departments-programs-i-z/library"" target=""_blank"">Website</a><br>"
"102","Cleveland County Memorial Library (Main)","Library","104 Howie Dr Shelby, NC 28150","https://www.ccml.org/ccml/","(704) 487-9069",35.29378822,-81.5561,"Free",NA,"Library","<B>Cleveland County Memorial Library (Main)</B><br><B>Library</B><br><B>Charge: </B>Free<br><B>Address: </B>104 Howie Dr Shelby, NC 28150<br><a href=""https://www.ccml.org/ccml/"" target=""_blank"">Website</a><br>"
"103","Spangler Branch Library","Library","112 Piedmont Dr Lawndale, NC 28090","https://www.ccml.org/ccml/","(704) 538-7005",35.4190111,-81.5518,"Free",NA,"Library","<B>Spangler Branch Library</B><br><B>Library</B><br><B>Charge: </B>Free<br><B>Address: </B>112 Piedmont Dr Lawndale, NC 28090<br><a href=""https://www.ccml.org/ccml/"" target=""_blank"">Website</a><br>"
"104","Chadbourn Community Library","Library","301 N Wilson St Chadbourn, NC 28431","https://ccplnc.weebly.com","(910) 654-3322",34.32466454,-78.825,"Free",NA,"Library","<B>Chadbourn Community Library</B><br><B>Library</B><br><B>Charge: </B>Free<br><B>Address: </B>301 N Wilson St Chadbourn, NC 28431<br><a href=""https://ccplnc.weebly.com"" target=""_blank"">Website</a><br>"
"105","Columbus County Public Library (Main)","Library","407 N JK Powell Blvd Whiteville, NC 28472","https://ccplnc.weebly.com","(910) 642-3116",34.3305611,-78.7079,"Free",NA,"Library","<B>Columbus County Public Library (Main)</B><br><B>Library</B><br><B>Charge: </B>Free<br><B>Address: </B>407 N JK Powell Blvd Whiteville, NC 28472<br><a href=""https://ccplnc.weebly.com"" target=""_blank"">Website</a><br>"
"106","Columbus County Public Library Bookmobile","Library","407 N JK Powell Blvd Whiteville, NC 28472","https://ccplnc.weebly.com","(910) 640-2665",34.3305611,-78.7079,"Free",NA,"Library","<B>Columbus County Public Library Bookmobile</B><br><B>Library</B><br><B>Charge: </B>Free<br><B>Address: </B>407 N JK Powell Blvd Whiteville, NC 28472<br><a href=""https://ccplnc.weebly.com"" target=""_blank"">Website</a><br>"
"107","East Columbus Branch Library","Library","103 Church Rd Riegelwood, NC 28456","https://ccplnc.weebly.com","(910) 655-4157",34.341863,-78.2292,"Free",NA,"Library","<B>East Columbus Branch Library</B><br><B>Library</B><br><B>Charge: </B>Free<br><B>Address: </B>103 Church Rd Riegelwood, NC 28456<br><a href=""https://ccplnc.weebly.com"" target=""_blank"">Website</a><br>"
"108","Fair Bluff Community Library","Library","315 Railroad St Fair Bluff, NC 28439","https://ccplnc.weebly.com","(910) 649-7098",34.31498875,-79.0305,"Free",NA,"Library","<B>Fair Bluff Community Library</B><br><B>Library</B><br><B>Charge: </B>Free<br><B>Address: </B>315 Railroad St Fair Bluff, NC 28439<br><a href=""https://ccplnc.weebly.com"" target=""_blank"">Website</a><br>"
"109","Tabor City Public Library","Library","1 E 5th St Tabor City, NC 28463","https://ccplnc.weebly.com","(910) 653-3774",34.1535764,-78.8661,"Free",NA,"Library","<B>Tabor City Public Library</B><br><B>Library</B><br><B>Charge: </B>Free<br><B>Address: </B>1 E 5th St Tabor City, NC 28463<br><a href=""https://ccplnc.weebly.com"" target=""_blank"">Website</a><br>"
"110","Cove City-Craven County Public Library","Library","102 N Main St Cove City, NC 28523","https://www.cpcrl.org/","(252) 638-6363",35.1871694,-77.3205,"Free",NA,"Library","<B>Cove City-Craven County Public Library</B><br><B>Library</B><br><B>Charge: </B>Free<br><B>Address: </B>102 N Main St Cove City, NC 28523<br><a href=""https://www.cpcrl.org/"" target=""_blank"">Website</a><br>"
"111","Havelock-Craven County Public","Library","301 Cunningham Blvd Havelock, NC 28532","https://www.cpcrl.org/","(252) 447-7509",34.87995371,-76.9009,"Free",NA,"Library","<B>Havelock-Craven County Public</B><br><B>Library</B><br><B>Charge: </B>Free<br><B>Address: </B>301 Cunningham Blvd Havelock, NC 28532<br><a href=""https://www.cpcrl.org/"" target=""_blank"">Website</a><br>"
"112","New Bern-Craven County Public Library","Library","400 Johnson St New Bern, NC 28560","https://www.cpcrl.org/","(252) 638-7800",35.11094772,-77.0392,"Free",NA,"Library","<B>New Bern-Craven County Public Library</B><br><B>Library</B><br><B>Charge: </B>Free<br><B>Address: </B>400 Johnson St New Bern, NC 28560<br><a href=""https://www.cpcrl.org/"" target=""_blank"">Website</a><br>"
"113","Pamlico County Library","Library","603 Main St Bayboro, NC 28515","https://www.cpcrl.org/","(252) 745-3515",35.14567216,-76.8137,"Free",NA,"Library","<B>Pamlico County Library</B><br><B>Library</B><br><B>Charge: </B>Free<br><B>Address: </B>603 Main St Bayboro, NC 28515<br><a href=""https://www.cpcrl.org/"" target=""_blank"">Website</a><br>"
"114","Vanceboro-Craven County Public Library","Library","7931 Main St Vanceboro, NC 28586","https://www.cpcrl.org/","(252) 244-0571",35.29962517,-77.1524,"Free",NA,"Library","<B>Vanceboro-Craven County Public Library</B><br><B>Library</B><br><B>Charge: </B>Free<br><B>Address: </B>7931 Main St Vanceboro, NC 28586<br><a href=""https://www.cpcrl.org/"" target=""_blank"">Website</a><br>"
"115","Bordeaux Branch Library","Library","3711 Village Dr Fayetteville, NC 28304","https://www.cumberlandcountync.gov/departments/library-group/library","(910) 483-7727",35.02700898,-78.9397,"Free",NA,"Library","<B>Bordeaux Branch Library</B><br><B>Library</B><br><B>Charge: </B>Free<br><B>Address: </B>3711 Village Dr Fayetteville, NC 28304<br><a href=""https://www.cumberlandcountync.gov/departments/library-group/library"" target=""_blank"">Website</a><br>"
"116","Cliffdale Branch Library","Library","6882 Cliffdale Rd Fayetteville, NC 28314","https://www.cumberlandcountync.gov/departments/library-group/library","(910) 483-7727",35.059794,-79.0104,"Free",NA,"Library","<B>Cliffdale Branch Library</B><br><B>Library</B><br><B>Charge: </B>Free<br><B>Address: </B>6882 Cliffdale Rd Fayetteville, NC 28314<br><a href=""https://www.cumberlandcountync.gov/departments/library-group/library"" target=""_blank"">Website</a><br>"
"117","Cumberland County Public Library","Library","300 Maiden Ln Fayetteville, NC 28301","https://www.cumberlandcountync.gov/departments/library-group/library","(910) 483-7727",35.05507032,-78.8809,"Free",NA,"Library","<B>Cumberland County Public Library</B><br><B>Library</B><br><B>Charge: </B>Free<br><B>Address: </B>300 Maiden Ln Fayetteville, NC 28301<br><a href=""https://www.cumberlandcountync.gov/departments/library-group/library"" target=""_blank"">Website</a><br>"
"118","East Regional Branch Library","Library","4809 Clinton Rd Fayetteville, NC 28312","https://www.cumberlandcountync.gov/departments/library-group/library","(910) 483-7727",35.03639039,-78.7608,"Free",NA,"Library","<B>East Regional Branch Library</B><br><B>Library</B><br><B>Charge: </B>Free<br><B>Address: </B>4809 Clinton Rd Fayetteville, NC 28312<br><a href=""https://www.cumberlandcountync.gov/departments/library-group/library"" target=""_blank"">Website</a><br>"
"119","Hope Mills Branch Library","Library","3411 Golfview Rd Hope Mills, NC 28348","https://www.cumberlandcountync.gov/departments/library-group/library","(910) 483-7727",34.9745264,-78.9595,"Free",NA,"Library","<B>Hope Mills Branch Library</B><br><B>Library</B><br><B>Charge: </B>Free<br><B>Address: </B>3411 Golfview Rd Hope Mills, NC 28348<br><a href=""https://www.cumberlandcountync.gov/departments/library-group/library"" target=""_blank"">Website</a><br>"
"120","North Regional Branch Library","Library","855 McArthur Rd Fayetteville, NC 28311","https://www.cumberlandcountync.gov/departments/library-group/library","(910) 483-7727",35.12897971,-78.895,"Free",NA,"Library","<B>North Regional Branch Library</B><br><B>Library</B><br><B>Charge: </B>Free<br><B>Address: </B>855 McArthur Rd Fayetteville, NC 28311<br><a href=""https://www.cumberlandcountync.gov/departments/library-group/library"" target=""_blank"">Website</a><br>"
"121","Spring Lake Branch Library","Library","101 Laketree Blvd Spring Lake, NC 28390","https://www.cumberlandcountync.gov/departments/library-group/library","(910) 483-7727",35.18232706,-78.9866,"Free",NA,"Library","<B>Spring Lake Branch Library</B><br><B>Library</B><br><B>Charge: </B>Free<br><B>Address: </B>101 Laketree Blvd Spring Lake, NC 28390<br><a href=""https://www.cumberlandcountync.gov/departments/library-group/library"" target=""_blank"">Website</a><br>"
"122","West Regional Branch Library","Library","7469 Century Cir Fayetteville, NC 28306","https://www.cumberlandcountync.gov/departments/library-group/library","(910) 483-7727",35.01353372,-79.0434,"Free",NA,"Library","<B>West Regional Branch Library</B><br><B>Library</B><br><B>Charge: </B>Free<br><B>Address: </B>7469 Century Cir Fayetteville, NC 28306<br><a href=""https://www.cumberlandcountync.gov/departments/library-group/library"" target=""_blank"">Website</a><br>"
"123","Lexington Public Library (Main)","Library","602 S Main St Lexington, NC 27292","https://www.co.davidson.nc.us/274/library","(336) 242-2040",35.81913739,-80.2589,"Free",NA,"Library","<B>Lexington Public Library (Main)</B><br><B>Library</B><br><B>Charge: </B>Free<br><B>Address: </B>602 S Main St Lexington, NC 27292<br><a href=""https://www.co.davidson.nc.us/274/library"" target=""_blank"">Website</a><br>"
"124","Denton Public Library","Library","310 W Salisbury St Denton, NC 27239","https://www.co.davidson.nc.us/274/library","(336) 859-2215",35.63344646,-80.1202,"Free",NA,"Library","<B>Denton Public Library</B><br><B>Library</B><br><B>Charge: </B>Free<br><B>Address: </B>310 W Salisbury St Denton, NC 27239<br><a href=""https://www.co.davidson.nc.us/274/library"" target=""_blank"">Website</a><br>"
"125","Davidson County Bookmobile","Library","602 S Main St Lexington, NC 27292","https://www.co.davidson.nc.us/274/library","(336) 242-2040",35.81913739,-80.2589,"Free",NA,"Library","<B>Davidson County Bookmobile</B><br><B>Library</B><br><B>Charge: </B>Free<br><B>Address: </B>602 S Main St Lexington, NC 27292<br><a href=""https://www.co.davidson.nc.us/274/library"" target=""_blank"">Website</a><br>"
"126","North Davidson Branch Library","Library","559 Critcher Dr Welcome, NC 27374","https://www.co.davidson.nc.us/274/library","(336) 242-2050",35.92866076,-80.243,"Free",NA,"Library","<B>North Davidson Branch Library</B><br><B>Library</B><br><B>Charge: </B>Free<br><B>Address: </B>559 Critcher Dr Welcome, NC 27374<br><a href=""https://www.co.davidson.nc.us/274/library"" target=""_blank"">Website</a><br>"
"127","Thomasville Public Library","Library","14 Randolph St Thomasville, NC 27360","https://www.co.davidson.nc.us/274/library","(336) 474-2690",35.88228167,-80.0814,"Free",NA,"Library","<B>Thomasville Public Library</B><br><B>Library</B><br><B>Charge: </B>Free<br><B>Address: </B>14 Randolph St Thomasville, NC 27360<br><a href=""https://www.co.davidson.nc.us/274/library"" target=""_blank"">Website</a><br>"
"128","West Davidson Public Library","Library","246 Tyro School Rd Lexington, NC 27295","https://www.co.davidson.nc.us/274/library","(336) 853-4800",35.80919013,-80.3761,"Free",NA,"Library","<B>West Davidson Public Library</B><br><B>Library</B><br><B>Charge: </B>Free<br><B>Address: </B>246 Tyro School Rd Lexington, NC 27295<br><a href=""https://www.co.davidson.nc.us/274/library"" target=""_blank"">Website</a><br>"
"129","Cooleemee Branch Library","Library","7796 Hwy 801 S Cooleemee, NC 27014","https://www.daviecountync.gov/400/public-library","(336) 284-2805",35.81591879,-80.5503,"Free",NA,"Library","<B>Cooleemee Branch Library</B><br><B>Library</B><br><B>Charge: </B>Free<br><B>Address: </B>7796 Hwy 801 S Cooleemee, NC 27014<br><a href=""https://www.daviecountync.gov/400/public-library"" target=""_blank"">Website</a><br>"
"130","Davie County Public Library (Main)","Library","371 N Main St Mocksville, NC 27028","https://www.daviecountync.gov/400/public-library","(336) 753-6030",35.89744451,-80.5596,"Free",NA,"Library","<B>Davie County Public Library (Main)</B><br><B>Library</B><br><B>Charge: </B>Free<br><B>Address: </B>371 N Main St Mocksville, NC 27028<br><a href=""https://www.daviecountync.gov/400/public-library"" target=""_blank"">Website</a><br>"
"131","Florence Gallier Library","Library","104 W Main St Magnolia, NC 28453","https://www.youseemore.com/duplin/default.asp","(910) 289-7056",34.89616132,-78.0562,"Free",NA,"Library","<B>Florence Gallier Library</B><br><B>Library</B><br><B>Charge: </B>Free<br><B>Address: </B>104 W Main St Magnolia, NC 28453<br><a href=""https://www.youseemore.com/duplin/default.asp"" target=""_blank"">Website</a><br>"
"132","Dorothy Wightman Library (Main)","Library","107 Bowden Dr Kenansville, NC 28349",NA,"(910) 296-2117",34.96371649,-77.9645,"Free",NA,"Library","<B>Dorothy Wightman Library (Main)</B><br><B>Library</B><br><B>Charge: </B>Free<br><B>Address: </B>107 Bowden Dr Kenansville, NC 28349<br><a href=""NA"" target=""_blank"">Website</a><br>"
"133","Emily Hill Library","Library","106 Park Cir Faison, NC 28341",NA,"(910) 267-0601",35.11975375,-78.1401,"Free",NA,"Library","<B>Emily Hill Library</B><br><B>Library</B><br><B>Charge: </B>Free<br><B>Address: </B>106 Park Cir Faison, NC 28341<br><a href=""NA"" target=""_blank"">Website</a><br>"
"134","Phillip Leff Memorial Library","Library","807 E Broad St Beulaville, NC 28518",NA,"(910) 298-4677",34.92127146,-77.7655,"Free",NA,"Library","<B>Phillip Leff Memorial Library</B><br><B>Library</B><br><B>Charge: </B>Free<br><B>Address: </B>807 E Broad St Beulaville, NC 28518<br><a href=""NA"" target=""_blank"">Website</a><br>"
"135","Rose Hill Library","Library","113 S Walnut St Rose Hill, NC 28458",NA,"(910) 289-2490",34.82654963,-78.0211,"Free",NA,"Library","<B>Rose Hill Library</B><br><B>Library</B><br><B>Charge: </B>Free<br><B>Address: </B>113 S Walnut St Rose Hill, NC 28458<br><a href=""NA"" target=""_blank"">Website</a><br>"
"136","Warsaw-Kornegay Public Library","Library","117 E College St Warsaw, NC 28398",NA,"(910) 293-4664",34.99962316,-78.0907,"Free",NA,"Library","<B>Warsaw-Kornegay Public Library</B><br><B>Library</B><br><B>Charge: </B>Free<br><B>Address: </B>117 E College St Warsaw, NC 28398<br><a href=""NA"" target=""_blank"">Website</a><br>"
"137","East Regional Branch Library","Library","211 Lick Creek Ln Durham, NC 27703","https://www.durhamcountylibrary.org/","(919) 560-0203",35.97782918,-78.8103,"Free",NA,"Library","<B>East Regional Branch Library</B><br><B>Library</B><br><B>Charge: </B>Free<br><B>Address: </B>211 Lick Creek Ln Durham, NC 27703<br><a href=""https://www.durhamcountylibrary.org/"" target=""_blank"">Website</a><br>"
"138","South Regional Library","Library","4505 S Alston Ave Durham, NC 27713","https://www.durhamcountylibrary.org/","(919) 560-7409",35.90321246,-78.8889,"Free",NA,"Library","<B>South Regional Library</B><br><B>Library</B><br><B>Charge: </B>Free<br><B>Address: </B>4505 S Alston Ave Durham, NC 27713<br><a href=""https://www.durhamcountylibrary.org/"" target=""_blank"">Website</a><br>"
"139","Bragtown Branch Library","Library","3200 Dearborn Dr Durham, NC 27704","https://www.durhamcountylibrary.org/","(919) 560-0210",36.03731093,-78.8716,"Free",NA,"Library","<B>Bragtown Branch Library</B><br><B>Library</B><br><B>Charge: </B>Free<br><B>Address: </B>3200 Dearborn Dr Durham, NC 27704<br><a href=""https://www.durhamcountylibrary.org/"" target=""_blank"">Website</a><br>"
"140","Durham County Library (Main)","Library","300 N Roxboro St Durham, NC 27701","https://www.durhamcountylibrary.org/","(919) 560-0100",35.99498569,-78.8973,"Free",NA,"Library","<B>Durham County Library (Main)</B><br><B>Library</B><br><B>Charge: </B>Free<br><B>Address: </B>300 N Roxboro St Durham, NC 27701<br><a href=""https://www.durhamcountylibrary.org/"" target=""_blank"">Website</a><br>"
"141","North Regional Library","Library","221 Milton Rd Durham, NC 27712","https://www.durhamcountylibrary.org/","(919) 560-0231",36.0892684,-78.9137,"Free",NA,"Library","<B>North Regional Library</B><br><B>Library</B><br><B>Charge: </B>Free<br><B>Address: </B>221 Milton Rd Durham, NC 27712<br><a href=""https://www.durhamcountylibrary.org/"" target=""_blank"">Website</a><br>"
"142","Southwest Regional Library","Library","3605 Shannon Rd Durham, NC 27707","https://www.durhamcountylibrary.org/","(919) 560-8590",35.95938812,-78.9547,"Free",NA,"Library","<B>Southwest Regional Library</B><br><B>Library</B><br><B>Charge: </B>Free<br><B>Address: </B>3605 Shannon Rd Durham, NC 27707<br><a href=""https://www.durhamcountylibrary.org/"" target=""_blank"">Website</a><br>"
"143","Stanford L Warren Branch Library","Library","1201 Fayetteville St Durham, NC 27707","https://www.durhamcountylibrary.org/","(919) 560-0270",35.98226559,-78.8989,"Free",NA,"Library","<B>Stanford L Warren Branch Library</B><br><B>Library</B><br><B>Charge: </B>Free<br><B>Address: </B>1201 Fayetteville St Durham, NC 27707<br><a href=""https://www.durhamcountylibrary.org/"" target=""_blank"">Website</a><br>"
"144","Corolla Branch Library","Library","1123 Ocean Trail Corolla, NC 27927","https://www.youseemore.com/earl/default.asp","(252) 453-0496",36.37899625,-75.8297,"Free",NA,"Library","<B>Corolla Branch Library</B><br><B>Library</B><br><B>Charge: </B>Free<br><B>Address: </B>1123 Ocean Trail Corolla, NC 27927<br><a href=""https://www.youseemore.com/earl/default.asp"" target=""_blank"">Website</a><br>"
"145","Currituck County Library","Library","4261 Caratoke Hwy Barco, NC 27917","https://www.youseemore.com/earl/default.asp","(252) 453-8345",36.36882522,-75.9703,"Free",NA,"Library","<B>Currituck County Library</B><br><B>Library</B><br><B>Charge: </B>Free<br><B>Address: </B>4261 Caratoke Hwy Barco, NC 27917<br><a href=""https://www.youseemore.com/earl/default.asp"" target=""_blank"">Website</a><br>"
"146","Dare County Library","Library","700 N Highway 64/264 Manteo, NC 27954","https://www.youseemore.com/earl/default.asp","(252) 473-2372",35.9112831,-75.6765,"Free",NA,"Library","<B>Dare County Library</B><br><B>Library</B><br><B>Charge: </B>Free<br><B>Address: </B>700 N Highway 64/264 Manteo, NC 27954<br><a href=""https://www.youseemore.com/earl/default.asp"" target=""_blank"">Website</a><br>"
"147","Hatteras Branch Library","Library","57709 Highway 12 Hatteras, NC 27943","https://www.youseemore.com/earl/default.asp","(252) 986-2385",35.21938545,-75.6907,"Free",NA,"Library","<B>Hatteras Branch Library</B><br><B>Library</B><br><B>Charge: </B>Free<br><B>Address: </B>57709 Highway 12 Hatteras, NC 27943<br><a href=""https://www.youseemore.com/earl/default.asp"" target=""_blank"">Website</a><br>"
"148","Kill Devil Hills Branch Library","Library","400 Mustian St Kill Devil Hills, NC 27948","https://www.youseemore.com/earl/default.asp","(252) 441-4331",36.00995615,-75.6616,"Free",NA,"Library","<B>Kill Devil Hills Branch Library</B><br><B>Library</B><br><B>Charge: </B>Free<br><B>Address: </B>400 Mustian St Kill Devil Hills, NC 27948<br><a href=""https://www.youseemore.com/earl/default.asp"" target=""_blank"">Website</a><br>"
"149","Moyock Public Library","Library","126 Campus Dr Moyock, NC 27958","https://www.youseemore.com/earl/default.asp","(252) 435-6419",36.51459595,-76.1316,"Free",NA,"Library","<B>Moyock Public Library</B><br><B>Library</B><br><B>Charge: </B>Free<br><B>Address: </B>126 Campus Dr Moyock, NC 27958<br><a href=""https://www.youseemore.com/earl/default.asp"" target=""_blank"">Website</a><br>"
"150","Pasquotank Library Bookmobile","Library","100 E Colonial Ave Elizabeth City, NC 27909","https://www.youseemore.com/earl/default.asp","(252) 335-2473",36.30100772,-76.2235,"Free",NA,"Library","<B>Pasquotank Library Bookmobile</B><br><B>Library</B><br><B>Charge: </B>Free<br><B>Address: </B>100 E Colonial Ave Elizabeth City, NC 27909<br><a href=""https://www.youseemore.com/earl/default.asp"" target=""_blank"">Website</a><br>"
"151","Pasquotank County Library","Library","100 E Colonial Ave Elizabeth City, NC 27909","https://www.youseemore.com/earl/default.asp","(252) 335-2473",36.30100772,-76.2235,"Free",NA,"Library","<B>Pasquotank County Library</B><br><B>Library</B><br><B>Charge: </B>Free<br><B>Address: </B>100 E Colonial Ave Elizabeth City, NC 27909<br><a href=""https://www.youseemore.com/earl/default.asp"" target=""_blank"">Website</a><br>"
"152","Edgecombe County Memorial Library (Main)","Library","909 Main St Tarboro, NC 27886","https://edgecombelibrary.libguides.com/homepage","(252) 823-1141",35.90126822,-77.5371,"Free",NA,"Library","<B>Edgecombe County Memorial Library (Main)</B><br><B>Library</B><br><B>Charge: </B>Free<br><B>Address: </B>909 Main St Tarboro, NC 27886<br><a href=""https://edgecombelibrary.libguides.com/homepage"" target=""_blank"">Website</a><br>"
"153","Pinetops Branch Library","Library","201 S 1st St Pinetops, NC 27864","https://edgecombelibrary.libguides.com/homepage","(252) 827-4621",35.79017129,-77.6381,"Free",NA,"Library","<B>Pinetops Branch Library</B><br><B>Library</B><br><B>Charge: </B>Free<br><B>Address: </B>201 S 1st St Pinetops, NC 27864<br><a href=""https://edgecombelibrary.libguides.com/homepage"" target=""_blank"">Website</a><br>"
"154","Farmville Public Library","Library","3762 W Wilson St Farmville, NC 27828","https://www.farmvillelibrary.org/","(252) 753-3355",35.60464744,-77.5973,"Free",NA,"Library","<B>Farmville Public Library</B><br><B>Library</B><br><B>Charge: </B>Free<br><B>Address: </B>3762 W Wilson St Farmville, NC 27828<br><a href=""https://www.farmvillelibrary.org/"" target=""_blank"">Website</a><br>"
"155","Albert Carlton-Cashiers Community Library","Library","249 Frank Allen Rd Cashiers, NC 28717","https://www.fontanalib.org/","(828) 743-0215",35.11124029,-83.1047,"Free",NA,"Library","<B>Albert Carlton-Cashiers Community Library</B><br><B>Library</B><br><B>Charge: </B>Free<br><B>Address: </B>249 Frank Allen Rd Cashiers, NC 28717<br><a href=""https://www.fontanalib.org/"" target=""_blank"">Website</a><br>"
"156","Hudson Library","Library","554 Main St Highlands, NC 28741","https://www.fontanalib.org/","(828) 526-3031",35.0539909,-83.2009,"Free",NA,"Library","<B>Hudson Library</B><br><B>Library</B><br><B>Charge: </B>Free<br><B>Address: </B>554 Main St Highlands, NC 28741<br><a href=""https://www.fontanalib.org/"" target=""_blank"">Website</a><br>"
"157","Jackson County Public Library","Library","310 Keener St Sylva, NC 28779","https://www.fontanalib.org/","(828) 586-2016",35.37272096,-83.228,"Free",NA,"Library","<B>Jackson County Public Library</B><br><B>Library</B><br><B>Charge: </B>Free<br><B>Address: </B>310 Keener St Sylva, NC 28779<br><a href=""https://www.fontanalib.org/"" target=""_blank"">Website</a><br>"
"158","Macon County Public Library","Library","149 Siler Farm Rd Franklin, NC 28734","https://www.fontanalib.org/","(828) 524-3600",35.15820398,-83.3817,"Free",NA,"Library","<B>Macon County Public Library</B><br><B>Library</B><br><B>Charge: </B>Free<br><B>Address: </B>149 Siler Farm Rd Franklin, NC 28734<br><a href=""https://www.fontanalib.org/"" target=""_blank"">Website</a><br>"
"159","Marianna Black Library","Library","33 Fryemont Rd Bryson City, NC 28713","https://www.fontanalib.org/","(828) 488-3030",35.42630651,-83.4448,"Free",NA,"Library","<B>Marianna Black Library</B><br><B>Library</B><br><B>Charge: </B>Free<br><B>Address: </B>33 Fryemont Rd Bryson City, NC 28713<br><a href=""https://www.fontanalib.org/"" target=""_blank"">Website</a><br>"
"160","Carver School Road Branch Library","Library","4915 Lansing Dr Winston-Salem, NC 27105","https://www.forsyth.cc/library/","(336) 703-2910",36.15091413,-80.2137,"Free",NA,"Library","<B>Carver School Road Branch Library</B><br><B>Library</B><br><B>Charge: </B>Free<br><B>Address: </B>4915 Lansing Dr Winston-Salem, NC 27105<br><a href=""https://www.forsyth.cc/library/"" target=""_blank"">Website</a><br>"
"161","Clemmons Branch Library","Library","3554 Clemmons Rd Clemmons, NC 27012","https://www.forsyth.cc/library/","(336) 703-2920",36.02197055,-80.3767,"Free",NA,"Library","<B>Clemmons Branch Library</B><br><B>Library</B><br><B>Charge: </B>Free<br><B>Address: </B>3554 Clemmons Rd Clemmons, NC 27012<br><a href=""https://www.forsyth.cc/library/"" target=""_blank"">Website</a><br>"
"162","Malloy/Jordan East Winston Heritage Center","Library","1110 E 7th St Winston-Salem, NC 27101","https://www.forsyth.cc/library/","(336) 703-2950",36.10206957,-80.233,"Free",NA,"Library","<B>Malloy/Jordan East Winston Heritage Center</B><br><B>Library</B><br><B>Charge: </B>Free<br><B>Address: </B>1110 E 7th St Winston-Salem, NC 27101<br><a href=""https://www.forsyth.cc/library/"" target=""_blank"">Website</a><br>"
"163","Forsyth County Public Library Bookmobile","Library","1110 E 7th St Winston-Salem, NC 27101","https://www.forsyth.cc/library/","(336) 703-2900",36.10206957,-80.233,"Free",NA,"Library","<B>Forsyth County Public Library Bookmobile</B><br><B>Library</B><br><B>Charge: </B>Free<br><B>Address: </B>1110 E 7th St Winston-Salem, NC 27101<br><a href=""https://www.forsyth.cc/library/"" target=""_blank"">Website</a><br>"
"164","Forsyth County Public Library (Main)","Library","660 W Fifth Street Winston-Salem, NC 27101","https://www.forsyth.cc/library/","(336) 703-3011",36.0990558,-80.2518,"Free",NA,"Library","<B>Forsyth County Public Library (Main)</B><br><B>Library</B><br><B>Charge: </B>Free<br><B>Address: </B>660 W Fifth Street Winston-Salem, NC 27101<br><a href=""https://www.forsyth.cc/library/"" target=""_blank"">Website</a><br>"
"165","Paddison Memorial Branch Library","Library","248 Harmon Ln Kernersville, NC 27284","https://www.forsyth.cc/library/","(336) 703-2930",36.11673915,-80.072,"Free",NA,"Library","<B>Paddison Memorial Branch Library</B><br><B>Library</B><br><B>Charge: </B>Free<br><B>Address: </B>248 Harmon Ln Kernersville, NC 27284<br><a href=""https://www.forsyth.cc/library/"" target=""_blank"">Website</a><br>"
"166","Lewisville Branch Library","Library","6490 Shallowford Rd Lewisville, NC 27023","https://www.forsyth.cc/library/","(336) 703-2940",36.09701279,-80.4196,"Free",NA,"Library","<B>Lewisville Branch Library</B><br><B>Library</B><br><B>Charge: </B>Free<br><B>Address: </B>6490 Shallowford Rd Lewisville, NC 27023<br><a href=""https://www.forsyth.cc/library/"" target=""_blank"">Website</a><br>"
"167","Rural Hall Branch Library","Library","7125 Broad St Rural Hall, NC 27045","https://www.forsyth.cc/library/","(336) 703-2970",36.22604611,-80.2869,"Free",NA,"Library","<B>Rural Hall Branch Library</B><br><B>Library</B><br><B>Charge: </B>Free<br><B>Address: </B>7125 Broad St Rural Hall, NC 27045<br><a href=""https://www.forsyth.cc/library/"" target=""_blank"">Website</a><br>"
"168","Southside Branch Library","Library","3185 Buchanan St Winston-Salem, NC 27127","https://www.forsyth.cc/library/","(336) 703-2980",36.05437267,-80.2546,"Free",NA,"Library","<B>Southside Branch Library</B><br><B>Library</B><br><B>Charge: </B>Free<br><B>Address: </B>3185 Buchanan St Winston-Salem, NC 27127<br><a href=""https://www.forsyth.cc/library/"" target=""_blank"">Website</a><br>"
"169","Walkertown Branch Library","Library","2969 Main St Walkertown, NC 27051","https://www.forsyth.cc/library/","(336) 703-2990",36.17097554,-80.1517,"Free",NA,"Library","<B>Walkertown Branch Library</B><br><B>Library</B><br><B>Charge: </B>Free<br><B>Address: </B>2969 Main St Walkertown, NC 27051<br><a href=""https://www.forsyth.cc/library/"" target=""_blank"">Website</a><br>"
"170","Reynolda Manor Branch Library","Library","2839 Fairlawn Dr Winston-Salem, NC 27106","https://www.franklincountync.gov/county_services/library/index.php","(336) 703-2960",36.14042704,-80.3008,"Free",NA,"Library","<B>Reynolda Manor Branch Library</B><br><B>Library</B><br><B>Charge: </B>Free<br><B>Address: </B>2839 Fairlawn Dr Winston-Salem, NC 27106<br><a href=""https://www.franklincountync.gov/county_services/library/index.php"" target=""_blank"">Website</a><br>"
"171","Bunn Branch Library","Library","610 Main St Bunn, NC 27508","https://www.franklincountync.gov/county_services/library/index.php","(919) 496-6764",35.95389557,-78.2462,"Free",NA,"Library","<B>Bunn Branch Library</B><br><B>Library</B><br><B>Charge: </B>Free<br><B>Address: </B>610 Main St Bunn, NC 27508<br><a href=""https://www.franklincountync.gov/county_services/library/index.php"" target=""_blank"">Website</a><br>"
"172","Franklin County Library (Main)","Library","906 N Main St Louisburg, NC 27549","https://www.franklincountync.gov/county_services/library/index.php","(919) 496-2111",36.11003285,-78.2965,"Free",NA,"Library","<B>Franklin County Library (Main)</B><br><B>Library</B><br><B>Charge: </B>Free<br><B>Address: </B>906 N Main St Louisburg, NC 27549<br><a href=""https://www.franklincountync.gov/county_services/library/index.php"" target=""_blank"">Website</a><br>"
"173","Franklinton Public Library","Library","9 W Mason St Franklinton, NC 27525","https://www.franklincountync.gov/county_services/library/index.php","(919) 494-2736",36.10356411,-78.4571,"Free",NA,"Library","<B>Franklinton Public Library</B><br><B>Library</B><br><B>Charge: </B>Free<br><B>Address: </B>9 W Mason St Franklinton, NC 27525<br><a href=""https://www.franklincountync.gov/county_services/library/index.php"" target=""_blank"">Website</a><br>"
"174","Franklin County Bookmobile","Library","906 N Main St Louisburg, NC 27549","https://www.franklincountync.gov/county_services/library/index.php","(919) 496-2111",36.11003285,-78.2965,"Free",NA,"Library","<B>Franklin County Bookmobile</B><br><B>Library</B><br><B>Charge: </B>Free<br><B>Address: </B>906 N Main St Louisburg, NC 27549<br><a href=""https://www.franklincountync.gov/county_services/library/index.php"" target=""_blank"">Website</a><br>"
"175","Belmont Branch Library","Library","125 N Central Ave Belmont, NC 28012","https://www.gastonlibrary.org/","(704) 285-5426",35.24296683,-81.0423,"Free",NA,"Library","<B>Belmont Branch Library</B><br><B>Library</B><br><B>Charge: </B>Free<br><B>Address: </B>125 N Central Ave Belmont, NC 28012<br><a href=""https://www.gastonlibrary.org/"" target=""_blank"">Website</a><br>"
"176","Bessemer City Branch Library","Library","207 N 12th St Bessemer City, NC 28016","https://www.gastonlibrary.org/","(704) 629-3321",35.28588551,-81.2837,"Free",NA,"Library","<B>Bessemer City Branch Library</B><br><B>Library</B><br><B>Charge: </B>Free<br><B>Address: </B>207 N 12th St Bessemer City, NC 28016<br><a href=""https://www.gastonlibrary.org/"" target=""_blank"">Website</a><br>"
"177","Cherryville Branch Library","Library","605 E Main St Cherryville, NC 28021","https://www.gastonlibrary.org/","(704) 435-6767",35.38074757,-81.3739,"Free",NA,"Library","<B>Cherryville Branch Library</B><br><B>Library</B><br><B>Charge: </B>Free<br><B>Address: </B>605 E Main St Cherryville, NC 28021<br><a href=""https://www.gastonlibrary.org/"" target=""_blank"">Website</a><br>"
"178","Dallas Branch Library","Library","105 S Holland St Dallas, NC 28034","https://www.gastonlibrary.org/","(704) 922-3621",35.31537716,-81.1774,"Free",NA,"Library","<B>Dallas Branch Library</B><br><B>Library</B><br><B>Charge: </B>Free<br><B>Address: </B>105 S Holland St Dallas, NC 28034<br><a href=""https://www.gastonlibrary.org/"" target=""_blank"">Website</a><br>"
"179","Ferguson Branch Library","Library","913 N Pryor St Gastonia, NC 28052","https://www.gastonlibrary.org/","(704) 868-8046",35.27293865,-81.1924,"Free",NA,"Library","<B>Ferguson Branch Library</B><br><B>Library</B><br><B>Charge: </B>Free<br><B>Address: </B>913 N Pryor St Gastonia, NC 28052<br><a href=""https://www.gastonlibrary.org/"" target=""_blank"">Website</a><br>"
"180","Gaston County Public Library (Main)","Library","1555 E Garrison Blvd Gastonia, NC 28054","https://www.gastonlibrary.org/","(704) 868-2164",35.25277872,-81.1567,"Free",NA,"Library","<B>Gaston County Public Library (Main)</B><br><B>Library</B><br><B>Charge: </B>Free<br><B>Address: </B>1555 E Garrison Blvd Gastonia, NC 28054<br><a href=""https://www.gastonlibrary.org/"" target=""_blank"">Website</a><br>"
"181","Lowell Branch Library","Library","203 McAdenville Rd Lowell, NC 28098","https://www.gastonlibrary.org/","(704) 824-1266",35.26676113,-81.0976,"Free",NA,"Library","<B>Lowell Branch Library</B><br><B>Library</B><br><B>Charge: </B>Free<br><B>Address: </B>203 McAdenville Rd Lowell, NC 28098<br><a href=""https://www.gastonlibrary.org/"" target=""_blank"">Website</a><br>"
"182","Mt. Holly Branch Library","Library","245 W Catawba Ave Mount Holly, NC 28120","https://www.gastonlibrary.org/","(704) 827-3581",35.29593469,-81.02,"Free",NA,"Library","<B>Mt. Holly Branch Library</B><br><B>Library</B><br><B>Charge: </B>Free<br><B>Address: </B>245 W Catawba Ave Mount Holly, NC 28120<br><a href=""https://www.gastonlibrary.org/"" target=""_blank"">Website</a><br>"
"183","Stanley Branch Library","Library","205 Peterson St Stanley, NC 28164","https://www.gastonlibrary.org/","(704) 263-4166",35.36100572,-81.0948,"Free",NA,"Library","<B>Stanley Branch Library</B><br><B>Library</B><br><B>Charge: </B>Free<br><B>Address: </B>205 Peterson St Stanley, NC 28164<br><a href=""https://www.gastonlibrary.org/"" target=""_blank"">Website</a><br>"
"184","Union Road Branch Library","Library","5800 Union Rd Gastonia, NC 28056","https://www.gastonlibrary.org/","(704) 852-4073",35.17892705,-81.1323,"Free",NA,"Library","<B>Union Road Branch Library</B><br><B>Library</B><br><B>Charge: </B>Free<br><B>Address: </B>5800 Union Rd Gastonia, NC 28056<br><a href=""https://www.gastonlibrary.org/"" target=""_blank"">Website</a><br>"
"185","George H. & Laura E. Brown Public Library","Library","122 Van Norden St Washington, NC 27889","https://washington-nc.libguides.com/home","(252) 946-4300",35.54449391,-77.0595,"Free",NA,"Library","<B>George H. & Laura E. Brown Public Library</B><br><B>Library</B><br><B>Charge: </B>Free<br><B>Address: </B>122 Van Norden St Washington, NC 27889<br><a href=""https://washington-nc.libguides.com/home"" target=""_blank"">Website</a><br>"
"186","Gibsonville Public Library","Library","506 Church St Gibsonville, NC 27249","https://www.giblib.org/","(336) 449-6455",36.10893876,-79.5444,"Free",NA,"Library","<B>Gibsonville Public Library</B><br><B>Library</B><br><B>Charge: </B>Free<br><B>Address: </B>506 Church St Gibsonville, NC 27249<br><a href=""https://www.giblib.org/"" target=""_blank"">Website</a><br>"
"187","Given Memorial Library","Library","150 Cherokee Rd Pinehurst, NC 28370","https://www.vopnc.org/our-government/library-home","(910) 295-6022",35.19277529,-79.4704,"Free",NA,"Library","<B>Given Memorial Library</B><br><B>Library</B><br><B>Charge: </B>Free<br><B>Address: </B>150 Cherokee Rd Pinehurst, NC 28370<br><a href=""https://www.vopnc.org/our-government/library-home"" target=""_blank"">Website</a><br>"
"188","Berea Branch Library","Library","1211 Hwy 158 Oxford, NC 27565","https://www.granville.lib.nc.us/","(919) 693-1231",36.3148218,-78.738,"Free",NA,"Library","<B>Berea Branch Library</B><br><B>Library</B><br><B>Charge: </B>Free<br><B>Address: </B>1211 Hwy 158 Oxford, NC 27565<br><a href=""https://www.granville.lib.nc.us/"" target=""_blank"">Website</a><br>"
"189","Richard H. Thornton Library (Main)","Library","210 Main St Oxford, NC 27565","https://www.granville.lib.nc.us/","(919) 693-1121",36.30985077,-78.5872,"Free",NA,"Library","<B>Richard H. Thornton Library (Main)</B><br><B>Library</B><br><B>Charge: </B>Free<br><B>Address: </B>210 Main St Oxford, NC 27565<br><a href=""https://www.granville.lib.nc.us/"" target=""_blank"">Website</a><br>"
"190","Stovall Branch Library","Library","300 Main St Stovall, NC 27582","https://www.granville.lib.nc.us/","(919) 693-5722",36.44741613,-78.5683,"Free",NA,"Library","<B>Stovall Branch Library</B><br><B>Library</B><br><B>Charge: </B>Free<br><B>Address: </B>300 Main St Stovall, NC 27582<br><a href=""https://www.granville.lib.nc.us/"" target=""_blank"">Website</a><br>"
"191","Blanche Benjamin Branch Library","Library","1530 Benjamin Pkwy Greensboro, NC 27408","https://library.greensboro-nc.gov/home","(336) 373-7540",36.10282252,-79.8311,"Free",NA,"Library","<B>Blanche Benjamin Branch Library</B><br><B>Library</B><br><B>Charge: </B>Free<br><B>Address: </B>1530 Benjamin Pkwy Greensboro, NC 27408<br><a href=""https://library.greensboro-nc.gov/home"" target=""_blank"">Website</a><br>"
"192","Glenwood Branch Library","Library","1901 W Florida St Greensboro, NC 27403","https://library.greensboro-nc.gov/home","(336) 297-5000",36.05222639,-79.8211,"Free",NA,"Library","<B>Glenwood Branch Library</B><br><B>Library</B><br><B>Charge: </B>Free<br><B>Address: </B>1901 W Florida St Greensboro, NC 27403<br><a href=""https://library.greensboro-nc.gov/home"" target=""_blank"">Website</a><br>"
"193","Glenn McNairy Branch Library","Library","4860 Lake Jeanette Rd Greensboro, NC 27455","https://library.greensboro-nc.gov/home","(336) 373-2015",36.14210527,-79.8144,"Free",NA,"Library","<B>Glenn McNairy Branch Library</B><br><B>Library</B><br><B>Charge: </B>Free<br><B>Address: </B>4860 Lake Jeanette Rd Greensboro, NC 27455<br><a href=""https://library.greensboro-nc.gov/home"" target=""_blank"">Website</a><br>"
"194","Greensboro Public Library (Main)","Library","219 N Church St Greensboro, NC 27401","https://library.greensboro-nc.gov/home","(336) 373-2474",36.07437666,-79.7868,"Free",NA,"Library","<B>Greensboro Public Library (Main)</B><br><B>Library</B><br><B>Charge: </B>Free<br><B>Address: </B>219 N Church St Greensboro, NC 27401<br><a href=""https://library.greensboro-nc.gov/home"" target=""_blank"">Website</a><br>"
"195","Kathleen Clay Edwards Family Branch","Library","1420 Price Park Rd Greensboro, NC 27410","https://library.greensboro-nc.gov/home","(336) 373-2923",36.10646276,-79.8807,"Free",NA,"Library","<B>Kathleen Clay Edwards Family Branch</B><br><B>Library</B><br><B>Charge: </B>Free<br><B>Address: </B>1420 Price Park Rd Greensboro, NC 27410<br><a href=""https://library.greensboro-nc.gov/home"" target=""_blank"">Website</a><br>"
"196","McGirt-Horton Branch Library","Library","2501 Phillips Ave Greensboro, NC 27405","https://library.greensboro-nc.gov/home","(336) 373-5810",36.09507791,-79.7451,"Free",NA,"Library","<B>McGirt-Horton Branch Library</B><br><B>Library</B><br><B>Charge: </B>Free<br><B>Address: </B>2501 Phillips Ave Greensboro, NC 27405<br><a href=""https://library.greensboro-nc.gov/home"" target=""_blank"">Website</a><br>"
"197","Hemphill Branch Library","Library","2301 W Vandalia Rd Greensboro, NC 27407","https://library.greensboro-nc.gov/home","(336) 373-2925",36.01975965,-79.8469,"Free",NA,"Library","<B>Hemphill Branch Library</B><br><B>Library</B><br><B>Charge: </B>Free<br><B>Address: </B>2301 W Vandalia Rd Greensboro, NC 27407<br><a href=""https://library.greensboro-nc.gov/home"" target=""_blank"">Website</a><br>"
"198","Vance H. Chavis Lifelong Learning Branch Library","Library","900 S Benbow Rd Greensboro, NC 27406","https://library.greensboro-nc.gov/home","(336) 373-5838",36.06430815,-79.7712,"Free",NA,"Library","<B>Vance H. Chavis Lifelong Learning Branch Library</B><br><B>Library</B><br><B>Charge: </B>Free<br><B>Address: </B>900 S Benbow Rd Greensboro, NC 27406<br><a href=""https://library.greensboro-nc.gov/home"" target=""_blank"">Website</a><br>"
"199","Halifax County Library (Main)","Library","33 Granville St Halifax, NC 27839","https://halifaxnc.libguides.com/hcl","(252) 583-3631",36.32715809,-77.5892,"Free",NA,"Library","<B>Halifax County Library (Main)</B><br><B>Library</B><br><B>Charge: </B>Free<br><B>Address: </B>33 Granville St Halifax, NC 27839<br><a href=""https://halifaxnc.libguides.com/hcl"" target=""_blank"">Website</a><br>"
"200","Littleton Public Library","Library","114 E South Main St Littleton, NC 27850","https://halifaxnc.libguides.com/hcl","(252) 586-3608",36.4350155,-77.9111,"Free",NA,"Library","<B>Littleton Public Library</B><br><B>Library</B><br><B>Charge: </B>Free<br><B>Address: </B>114 E South Main St Littleton, NC 27850<br><a href=""https://halifaxnc.libguides.com/hcl"" target=""_blank"">Website</a><br>"
"201","Littleton Public Library","Library","1600 Main St Scotland Neck, NC 27874","https://halifaxnc.libguides.com/hcl","(252) 826-5578",36.1369115,-77.4204,"Free",NA,"Library","<B>Littleton Public Library</B><br><B>Library</B><br><B>Charge: </B>Free<br><B>Address: </B>1600 Main St Scotland Neck, NC 27874<br><a href=""https://halifaxnc.libguides.com/hcl"" target=""_blank"">Website</a><br>"
"202","Weldon Memorial Library","Library","6 W 1st St Weldon, NC 27890","https://halifaxnc.libguides.com/hcl","(252) 536-3837",36.42887548,-77.597,"Free",NA,"Library","<B>Weldon Memorial Library</B><br><B>Library</B><br><B>Charge: </B>Free<br><B>Address: </B>6 W 1st St Weldon, NC 27890<br><a href=""https://halifaxnc.libguides.com/hcl"" target=""_blank"">Website</a><br>"
"203","Angier Public Library","Library","28 N Raleigh St Angier, NC 27546","https://harnett.libguides.com/hcpl","(919) 639-4413",35.50773913,-78.7408,"Free",NA,"Library","<B>Angier Public Library</B><br><B>Library</B><br><B>Charge: </B>Free<br><B>Address: </B>28 N Raleigh St Angier, NC 27546<br><a href=""https://harnett.libguides.com/hcpl"" target=""_blank"">Website</a><br>"
"204","Coats Public Library","Library","29 E Main St Coats, NC 27521","https://harnett.libguides.com/hcpl","(910) 230-1944",35.40793436,-78.6722,"Free",NA,"Library","<B>Coats Public Library</B><br><B>Library</B><br><B>Charge: </B>Free<br><B>Address: </B>29 E Main St Coats, NC 27521<br><a href=""https://harnett.libguides.com/hcpl"" target=""_blank"">Website</a><br>"
"205","Dunn Public Library","Library","110 E Divine St Dunn, NC 28334","https://harnett.libguides.com/hcpl","(910) 892-2899",35.30652395,-78.6118,"Free",NA,"Library","<B>Dunn Public Library</B><br><B>Library</B><br><B>Charge: </B>Free<br><B>Address: </B>110 E Divine St Dunn, NC 28334<br><a href=""https://harnett.libguides.com/hcpl"" target=""_blank"">Website</a><br>"
"206","Erwin Public Library","Library","110 W F St Erwin, NC 28339","https://harnett.libguides.com/hcpl","(910) 897-5780",35.32597609,-78.6762,"Free",NA,"Library","<B>Erwin Public Library</B><br><B>Library</B><br><B>Charge: </B>Free<br><B>Address: </B>110 W F St Erwin, NC 28339<br><a href=""https://harnett.libguides.com/hcpl"" target=""_blank"">Website</a><br>"
"207","Harnett County Public Library (Main)","Library","601 S Main St Lillington, NC 27546","https://harnett.libguides.com/hcpl","(910) 893-3446",35.40056597,-78.8153,"Free",NA,"Library","<B>Harnett County Public Library (Main)</B><br><B>Library</B><br><B>Charge: </B>Free<br><B>Address: </B>601 S Main St Lillington, NC 27546<br><a href=""https://harnett.libguides.com/hcpl"" target=""_blank"">Website</a><br>"
"208","Anderson Creek Public Library","Library","914 Anderson Creek School Rd Bunnlevel, NC 28323","https://harnett.libguides.com/hcpl","(910) 814-4012",35.28343221,-78.9163,"Free",NA,"Library","<B>Anderson Creek Public Library</B><br><B>Library</B><br><B>Charge: </B>Free<br><B>Address: </B>914 Anderson Creek School Rd Bunnlevel, NC 28323<br><a href=""https://harnett.libguides.com/hcpl"" target=""_blank"">Website</a><br>"
"209","Boone Trail Community Center & Library","Library","8500 Old US 421 Lillington, NC 27546","https://harnett.libguides.com/hcpl","(910) 984-1094",35.41724535,-78.9606,"Free",NA,"Library","<B>Boone Trail Community Center & Library</B><br><B>Library</B><br><B>Charge: </B>Free<br><B>Address: </B>8500 Old US 421 Lillington, NC 27546<br><a href=""https://harnett.libguides.com/hcpl"" target=""_blank"">Website</a><br>"
"210","Harold D. Cooley Library","Library","114 W Church St Nashville, NC 27856","https://www.townofnashville.com/departments/harold-d-cooley-library-nlp","(252) 459-2106",35.97332619,-77.9665,"Free",NA,"Library","<B>Harold D. Cooley Library</B><br><B>Library</B><br><B>Charge: </B>Free<br><B>Address: </B>114 W Church St Nashville, NC 27856<br><a href=""https://www.townofnashville.com/departments/harold-d-cooley-library-nlp"" target=""_blank"">Website</a><br>"
"211","Fines Creek Branch Library","Library","190 Fines Creek Rd Clyde, NC 28721","https://www.haywoodlibrary.org/628/public-library","(828) 356-2551",35.68153796,-82.9552,"Free",NA,"Library","<B>Fines Creek Branch Library</B><br><B>Library</B><br><B>Charge: </B>Free<br><B>Address: </B>190 Fines Creek Rd Clyde, NC 28721<br><a href=""https://www.haywoodlibrary.org/628/public-library"" target=""_blank"">Website</a><br>"
"212","Canton Branch Library","Library","11 Pennsylvania Ave Canton, NC 28716","https://www.haywoodlibrary.org/628/public-library","(828) 648-2924",35.52954812,-82.8349,"Free",NA,"Library","<B>Canton Branch Library</B><br><B>Library</B><br><B>Charge: </B>Free<br><B>Address: </B>11 Pennsylvania Ave Canton, NC 28716<br><a href=""https://www.haywoodlibrary.org/628/public-library"" target=""_blank"">Website</a><br>"
"213","Haywood County Public Library (Main)","Library","678 S Haywood St Waynesville, NC 28786","https://www.haywoodlibrary.org/628/public-library","(828) 452-5169",35.48785111,-82.991,"Free",NA,"Library","<B>Haywood County Public Library (Main)</B><br><B>Library</B><br><B>Charge: </B>Free<br><B>Address: </B>678 S Haywood St Waynesville, NC 28786<br><a href=""https://www.haywoodlibrary.org/628/public-library"" target=""_blank"">Website</a><br>"
"214","Maggie Valley Branch Library","Library","3987 Soco Rd Maggie Valley, NC 28751","https://www.haywoodlibrary.org/628/public-library","(828) 356-2541",35.51776572,-83.095,"Free",NA,"Library","<B>Maggie Valley Branch Library</B><br><B>Library</B><br><B>Charge: </B>Free<br><B>Address: </B>3987 Soco Rd Maggie Valley, NC 28751<br><a href=""https://www.haywoodlibrary.org/628/public-library"" target=""_blank"">Website</a><br>"
"215","Edneyville Branch Library","Library","2 Firehouse Ln Hendersonville, NC 28792","https://www.hendersoncountync.gov/library","(828) 685-0110",35.38977042,-82.347,"Free",NA,"Library","<B>Edneyville Branch Library</B><br><B>Library</B><br><B>Charge: </B>Free<br><B>Address: </B>2 Firehouse Ln Hendersonville, NC 28792<br><a href=""https://www.hendersoncountync.gov/library"" target=""_blank"">Website</a><br>"
"216","Etowah Branch Library","Library","101 Brickyard Rd Etowah, NC 28729","https://www.hendersoncountync.gov/library","(828) 891-6577",35.31936412,-82.5949,"Free",NA,"Library","<B>Etowah Branch Library</B><br><B>Library</B><br><B>Charge: </B>Free<br><B>Address: </B>101 Brickyard Rd Etowah, NC 28729<br><a href=""https://www.hendersoncountync.gov/library"" target=""_blank"">Website</a><br>"
"217","Fletcher Branch Library","Library","120 Library Rd Fletcher, NC 28732","https://www.hendersoncountync.gov/library","(828) 687-1218",35.4347769,-82.5028,"Free",NA,"Library","<B>Fletcher Branch Library</B><br><B>Library</B><br><B>Charge: </B>Free<br><B>Address: </B>120 Library Rd Fletcher, NC 28732<br><a href=""https://www.hendersoncountync.gov/library"" target=""_blank"">Website</a><br>"
"218","Green River Branch Library","Library","50 Green River Rd Zirconia, NC 28790","https://www.hendersoncountync.gov/library","(828) 697-4969",35.21552944,-82.4427,"Free",NA,"Library","<B>Green River Branch Library</B><br><B>Library</B><br><B>Charge: </B>Free<br><B>Address: </B>50 Green River Rd Zirconia, NC 28790<br><a href=""https://www.hendersoncountync.gov/library"" target=""_blank"">Website</a><br>"
"219","Henderson County Public Library (Main)","Library","301 N Washington St Hendersonville, NC 28739","https://www.hendersoncountync.gov/library","(828) 697-4725",35.31553537,-82.4626,"Free",NA,"Library","<B>Henderson County Public Library (Main)</B><br><B>Library</B><br><B>Charge: </B>Free<br><B>Address: </B>301 N Washington St Hendersonville, NC 28739<br><a href=""https://www.hendersoncountync.gov/library"" target=""_blank"">Website</a><br>"
"220","Mills River Branch Library","Library","124 Town Center Dr Ste 1 Mills River, NC 28759","https://www.hendersoncountync.gov/library","(828) 890-1850",35.38427498,-82.5494,"Free",NA,"Library","<B>Mills River Branch Library</B><br><B>Library</B><br><B>Charge: </B>Free<br><B>Address: </B>124 Town Center Dr Ste 1 Mills River, NC 28759<br><a href=""https://www.hendersoncountync.gov/library"" target=""_blank"">Website</a><br>"
"221","Patrick Beaver Memorial Library (Main)","Library","375 3rd St Ne Hickory, NC 28601",NA,"(828) 304-0500",35.73682796,-81.3332,"Free",NA,"Library","<B>Patrick Beaver Memorial Library (Main)</B><br><B>Library</B><br><B>Charge: </B>Free<br><B>Address: </B>375 3rd St Ne Hickory, NC 28601<br><a href=""NA"" target=""_blank"">Website</a><br>"
"222","Ridgeview Branch Library","Library","706 1st St Sw Hickory, NC 28602",NA,"(828) 345-6037",35.72373742,-81.3394,"Free",NA,"Library","<B>Ridgeview Branch Library</B><br><B>Library</B><br><B>Charge: </B>Free<br><B>Address: </B>706 1st St Sw Hickory, NC 28602<br><a href=""NA"" target=""_blank"">Website</a><br>"
"223","High Point Public Library (Main)","Library","901 N Main St High Point, NC 27262","https://www.highpointnc.gov/749/library","(336) 883-3631",35.96565251,-80.0126,"Free",NA,"Library","<B>High Point Public Library (Main)</B><br><B>Library</B><br><B>Charge: </B>Free<br><B>Address: </B>901 N Main St High Point, NC 27262<br><a href=""https://www.highpointnc.gov/749/library"" target=""_blank"">Website</a><br>"
"224","Books & Beyond Mobile Library","Library","901 N Main St High Point, NC 27262","https://www.highpointnc.gov/749/library","(336) 883-3631",35.96565251,-80.0126,"Free",NA,"Library","<B>Books & Beyond Mobile Library</B><br><B>Library</B><br><B>Charge: </B>Free<br><B>Address: </B>901 N Main St High Point, NC 27262<br><a href=""https://www.highpointnc.gov/749/library"" target=""_blank"">Website</a><br>"
"225","Hocutt-Ellington Memorial Library","Library","100 S Church Street Clayton, NC 27520","https://www.townofclaytonnc.org/library/","(919) 553-5542",35.65229583,-78.4589,"Free",NA,"Library","<B>Hocutt-Ellington Memorial Library</B><br><B>Library</B><br><B>Charge: </B>Free<br><B>Address: </B>100 S Church Street Clayton, NC 27520<br><a href=""https://www.townofclaytonnc.org/library/"" target=""_blank"">Website</a><br>"
"226","Iredell County Library (Main)","Library","201 N Tradd St Statesville, NC 28687","https://www.iredell.lib.nc.us/","(704) 878-3090",35.78741167,-80.8871,"Free",NA,"Library","<B>Iredell County Library (Main)</B><br><B>Library</B><br><B>Charge: </B>Free<br><B>Address: </B>201 N Tradd St Statesville, NC 28687<br><a href=""https://www.iredell.lib.nc.us/"" target=""_blank"">Website</a><br>"
"227","Harmony Branch Library","Library","3393 Harmony Hwy Harmony, NC 28634","https://www.iredell.lib.nc.us/","(704) 546-7086",35.95962542,-80.7717,"Free",NA,"Library","<B>Harmony Branch Library</B><br><B>Library</B><br><B>Charge: </B>Free<br><B>Address: </B>3393 Harmony Hwy Harmony, NC 28634<br><a href=""https://www.iredell.lib.nc.us/"" target=""_blank"">Website</a><br>"
"228","J. Hoyt Hayes Memorial Troutman Branch Library","Library","215 W Church St Troutman, NC 28166","https://www.iredell.lib.nc.us/","(704) 528-2682",35.70070381,-80.8914,"Free",NA,"Library","<B>J. Hoyt Hayes Memorial Troutman Branch Library</B><br><B>Library</B><br><B>Charge: </B>Free<br><B>Address: </B>215 W Church St Troutman, NC 28166<br><a href=""https://www.iredell.lib.nc.us/"" target=""_blank"">Website</a><br>"
"229","Broadway Branch Library","Library","206 S Main St Broadway, NC 27505","https://library.leecountync.gov/home","(919) 258-6513",35.45514791,-79.0521,"Free",NA,"Library","<B>Broadway Branch Library</B><br><B>Library</B><br><B>Charge: </B>Free<br><B>Address: </B>206 S Main St Broadway, NC 27505<br><a href=""https://library.leecountync.gov/home"" target=""_blank"">Website</a><br>"
"230","Lee County Library (Main)","Library","107 Hawkins Ave Sanford, NC 27330","https://library.leecountync.gov/home","(919) 718-4665",35.48180206,-79.1776,"Free",NA,"Library","<B>Lee County Library (Main)</B><br><B>Library</B><br><B>Charge: </B>Free<br><B>Address: </B>107 Hawkins Ave Sanford, NC 27330<br><a href=""https://library.leecountync.gov/home"" target=""_blank"">Website</a><br>"
"231","Charles R. Jonas Library (Main)","Library","306 W Main St Lincolnton, NC 28092","https://www.lincolncounty.org/index.aspx?nid=986","(704) 735-8044",35.47039085,-81.26,"Free",NA,"Library","<B>Charles R. Jonas Library (Main)</B><br><B>Library</B><br><B>Charge: </B>Free<br><B>Address: </B>306 W Main St Lincolnton, NC 28092<br><a href=""https://www.lincolncounty.org/index.aspx?nid=986"" target=""_blank"">Website</a><br>"
"232","Florence S. Shanklin Branch Library","Library","7837 Fairfield Forest Rd Denver, NC 28037","https://nc-lincolncountylibrary.civicplus.com","(704) 483-3589",35.50804289,-80.9805,"Free",NA,"Library","<B>Florence S. Shanklin Branch Library</B><br><B>Library</B><br><B>Charge: </B>Free<br><B>Address: </B>7837 Fairfield Forest Rd Denver, NC 28037<br><a href=""https://nc-lincolncountylibrary.civicplus.com"" target=""_blank"">Website</a><br>"
"233","West Lincoln Branch Library","Library","5545 W NC Hwy 27 Vale, NC 28168","https://nc-lincolncountylibrary.civicplus.com","(704) 276-9946",35.49788626,-81.4213,"Free",NA,"Library","<B>West Lincoln Branch Library</B><br><B>Library</B><br><B>Charge: </B>Free<br><B>Address: </B>5545 W NC Hwy 27 Vale, NC 28168<br><a href=""https://nc-lincolncountylibrary.civicplus.com"" target=""_blank"">Website</a><br>"
"234","Hot Springs Branch Library","Library","170 Bridge St Hot Springs, NC 28743","https://www.madisoncountylibrary.net/","(828) 622-3584",35.89275262,-82.8273,"Free",NA,"Library","<B>Hot Springs Branch Library</B><br><B>Library</B><br><B>Charge: </B>Free<br><B>Address: </B>170 Bridge St Hot Springs, NC 28743<br><a href=""https://www.madisoncountylibrary.net/"" target=""_blank"">Website</a><br>"
"235","Madison County Public Library (Main)","Library","1335 N Main St Marshall, NC 28753","https://www.madisoncountylibrary.net/","(828) 649-3741",35.80848033,-82.6885,"Free",NA,"Library","<B>Madison County Public Library (Main)</B><br><B>Library</B><br><B>Charge: </B>Free<br><B>Address: </B>1335 N Main St Marshall, NC 28753<br><a href=""https://www.madisoncountylibrary.net/"" target=""_blank"">Website</a><br>"
"236","Mars Hill Branch Library","Library","25 Library St Mars Hill, NC 28754","https://www.madisoncountylibrary.net/","(828) 689-5183",35.8276205,-82.5478,"Free",NA,"Library","<B>Mars Hill Branch Library</B><br><B>Library</B><br><B>Charge: </B>Free<br><B>Address: </B>25 Library St Mars Hill, NC 28754<br><a href=""https://www.madisoncountylibrary.net/"" target=""_blank"">Website</a><br>"
"237","Mauney Memorial Library","Library","100 S Piedmont Ave Kings Mountain, NC 28086","https://www.mauneylibrary.org/249/mauney-memorial-library","(704) 739-2371",35.24083174,-81.3425,"Free",NA,"Library","<B>Mauney Memorial Library</B><br><B>Library</B><br><B>Charge: </B>Free<br><B>Address: </B>100 S Piedmont Ave Kings Mountain, NC 28086<br><a href=""https://www.mauneylibrary.org/249/mauney-memorial-library"" target=""_blank"">Website</a><br>"
"238","McDowell County Public Library (Main)","Library","90 W Court St Marion, NC 28752","https://www.mcdowellpubliclibrary.org/","(828) 652-3858",35.68375805,-82.0101,"Free",NA,"Library","<B>McDowell County Public Library (Main)</B><br><B>Library</B><br><B>Charge: </B>Free<br><B>Address: </B>90 W Court St Marion, NC 28752<br><a href=""https://www.mcdowellpubliclibrary.org/"" target=""_blank"">Website</a><br>"
"239","Old Fort Branch Library","Library","65 E Mitchell St Old Fort, NC 28762","https://www.mcdowellpubliclibrary.org/","(828) 668-7111",35.62632348,-82.1807,"Free",NA,"Library","<B>Old Fort Branch Library</B><br><B>Library</B><br><B>Charge: </B>Free<br><B>Address: </B>65 E Mitchell St Old Fort, NC 28762<br><a href=""https://www.mcdowellpubliclibrary.org/"" target=""_blank"">Website</a><br>"
"240","Mooresville Public Library","Library","304 S Main St Mooresville, NC 28115","https://www.mooresvillenc.gov/government/departments/library/index.php","(704) 664-2927",35.57935325,-80.8168,"Free",NA,"Library","<B>Mooresville Public Library</B><br><B>Library</B><br><B>Charge: </B>Free<br><B>Address: </B>304 S Main St Mooresville, NC 28115<br><a href=""https://www.mooresvillenc.gov/government/departments/library/index.php"" target=""_blank"">Website</a><br>"
"241","Andrews Public Library","Library","871 Main St Andrews, NC 28901","https://www.nrlibrary.org/locations","(828) 321-5956",35.20020543,-83.827,"Free",NA,"Library","<B>Andrews Public Library</B><br><B>Library</B><br><B>Charge: </B>Free<br><B>Address: </B>871 Main St Andrews, NC 28901<br><a href=""https://www.nrlibrary.org/locations"" target=""_blank"">Website</a><br>"
"242","Graham County Public Library","Library","80 Knight St Robbinsville, NC 28771","https://www.nrlibrary.org/locations","(828) 479-8796",35.32804672,-83.8104,"Free",NA,"Library","<B>Graham County Public Library</B><br><B>Library</B><br><B>Charge: </B>Free<br><B>Address: </B>80 Knight St Robbinsville, NC 28771<br><a href=""https://www.nrlibrary.org/locations"" target=""_blank"">Website</a><br>"
"243","Moss Memorial Library","Library","26 Anderson St Hayesville, NC 28904","https://www.nrlibrary.org/locations","(828) 389-8401",35.04663406,-83.8164,"Free",NA,"Library","<B>Moss Memorial Library</B><br><B>Library</B><br><B>Charge: </B>Free<br><B>Address: </B>26 Anderson St Hayesville, NC 28904<br><a href=""https://www.nrlibrary.org/locations"" target=""_blank"">Website</a><br>"
"244","Murphy Public Library","Library","9 Blumenthal St Murphy, NC 28906","https://www.nrlibrary.org/locations","(828) 837-2417",35.08647333,-84.032,"Free",NA,"Library","<B>Murphy Public Library</B><br><B>Library</B><br><B>Charge: </B>Free<br><B>Address: </B>9 Blumenthal St Murphy, NC 28906<br><a href=""https://www.nrlibrary.org/locations"" target=""_blank"">Website</a><br>"
"245","Nantahala Regional Library Bookmobile","Library","11 Blumenthal St Murphy, NC 28906","https://www.nrlibrary.org/locations","(828) 837-2025",35.08637602,-84.0319,"Free",NA,"Library","<B>Nantahala Regional Library Bookmobile</B><br><B>Library</B><br><B>Charge: </B>Free<br><B>Address: </B>11 Blumenthal St Murphy, NC 28906<br><a href=""https://www.nrlibrary.org/locations"" target=""_blank"">Website</a><br>"
"246","Comfort Branch Library","Library","4889 Highway 41 W Trenton, NC 28585","https://www.neuselibrary.org/","(910) 324-5061",35.00247182,-77.5306,"Free",NA,"Library","<B>Comfort Branch Library</B><br><B>Library</B><br><B>Charge: </B>Free<br><B>Address: </B>4889 Highway 41 W Trenton, NC 28585<br><a href=""https://www.neuselibrary.org/"" target=""_blank"">Website</a><br>"
"247","Greene County Library","Library","229G Kingold Blvd Snow Hill, NC 28580","https://www.neuselibrary.org/","(252) 747-3437",35.45108661,-77.6824,"Free",NA,"Library","<B>Greene County Library</B><br><B>Library</B><br><B>Charge: </B>Free<br><B>Address: </B>229G Kingold Blvd Snow Hill, NC 28580<br><a href=""https://www.neuselibrary.org/"" target=""_blank"">Website</a><br>"
"248","Kinston-Lenoir County Public Library","Library","510 N Queen St Kinston, NC 28501","https://www.neuselibrary.org/","(252) 527-7066",35.26525346,-77.5812,"Free",NA,"Library","<B>Kinston-Lenoir County Public Library</B><br><B>Library</B><br><B>Charge: </B>Free<br><B>Address: </B>510 N Queen St Kinston, NC 28501<br><a href=""https://www.neuselibrary.org/"" target=""_blank"">Website</a><br>"
"249","La Grange Branch Library","Library","119 E Washington St La Grange, NC 28551","https://www.neuselibrary.org/","(252) 566-3722",35.30500083,-77.7883,"Free",NA,"Library","<B>La Grange Branch Library</B><br><B>Library</B><br><B>Charge: </B>Free<br><B>Address: </B>119 E Washington St La Grange, NC 28551<br><a href=""https://www.neuselibrary.org/"" target=""_blank"">Website</a><br>"
"250","Maysville Branch Library","Library","601 7th St Maysville, NC 28555","https://www.neuselibrary.org/","(910) 743-3796",34.90263777,-77.2316,"Free",NA,"Library","<B>Maysville Branch Library</B><br><B>Library</B><br><B>Charge: </B>Free<br><B>Address: </B>601 7th St Maysville, NC 28555<br><a href=""https://www.neuselibrary.org/"" target=""_blank"">Website</a><br>"
"251","Pink Hill Branch Library","Library","114 W Broadway St Pink Hill, NC 28572","https://www.neuselibrary.org/","(252) 568-3631",35.05513032,-77.7452,"Free",NA,"Library","<B>Pink Hill Branch Library</B><br><B>Library</B><br><B>Charge: </B>Free<br><B>Address: </B>114 W Broadway St Pink Hill, NC 28572<br><a href=""https://www.neuselibrary.org/"" target=""_blank"">Website</a><br>"
"252","Pollocksville Branch Library","Library","415 Green Hill St Pollocksville, NC 28573","https://www.neuselibrary.org/","(252) 224-5011",35.0056581,-77.2253,"Free",NA,"Library","<B>Pollocksville Branch Library</B><br><B>Library</B><br><B>Charge: </B>Free<br><B>Address: </B>415 Green Hill St Pollocksville, NC 28573<br><a href=""https://www.neuselibrary.org/"" target=""_blank"">Website</a><br>"
"253","Trenton Branch Library","Library","204 Lakeview Dr Trenton, NC 28585","https://www.neuselibrary.org/","(252) 448-4261",35.06299865,-77.3558,"Free",NA,"Library","<B>Trenton Branch Library</B><br><B>Library</B><br><B>Charge: </B>Free<br><B>Address: </B>204 Lakeview Dr Trenton, NC 28585<br><a href=""https://www.neuselibrary.org/"" target=""_blank"">Website</a><br>"
"254","Northeast Regional Library","Library","1241 Military Cutoff Rd Wilmington, NC 28405","https://www.nhcgov.com/2628/Library","(910) 798-6370",34.23310648,-77.8289,"Free",NA,"Library","<B>Northeast Regional Library</B><br><B>Library</B><br><B>Charge: </B>Free<br><B>Address: </B>1241 Military Cutoff Rd Wilmington, NC 28405<br><a href=""https://www.nhcgov.com/2628/Library"" target=""_blank"">Website</a><br>"
"255","Pine Valley Library","Library","3802 S College Rd Wilmington, NC 28412","https://www.nhcgov.com/2628/Library","(910) 798-6390",34.17344435,-77.8914,"Free",NA,"Library","<B>Pine Valley Library</B><br><B>Library</B><br><B>Charge: </B>Free<br><B>Address: </B>3802 S College Rd Wilmington, NC 28412<br><a href=""https://www.nhcgov.com/2628/Library"" target=""_blank"">Website</a><br>"
"256","New Hanover County Public Library (Main)","Library","201 Chestnut St Wilmington, NC 28401","https://www.nhcgov.com/2628/Library","(910) 798-6300",34.23771167,-77.9476,"Free",NA,"Library","<B>New Hanover County Public Library (Main)</B><br><B>Library</B><br><B>Charge: </B>Free<br><B>Address: </B>201 Chestnut St Wilmington, NC 28401<br><a href=""https://www.nhcgov.com/2628/Library"" target=""_blank"">Website</a><br>"
"257","Alleghany County Public Library","Library","115 Atwood St Sparta, NC 28675","https://www.nwrlibrary.org/","(336) 372-5573",36.51335817,-81.1191,"Free",NA,"Library","<B>Alleghany County Public Library</B><br><B>Library</B><br><B>Charge: </B>Free<br><B>Address: </B>115 Atwood St Sparta, NC 28675<br><a href=""https://www.nwrlibrary.org/"" target=""_blank"">Website</a><br>"
"258","Charles H. Stone Memorial Library","Library","319 W Main St Pilot Mountain, NC 27041","https://www.nwrlibrary.org/","(336) 368-2370",36.38662728,-80.4701,"Free",NA,"Library","<B>Charles H. Stone Memorial Library</B><br><B>Library</B><br><B>Charge: </B>Free<br><B>Address: </B>319 W Main St Pilot Mountain, NC 27041<br><a href=""https://www.nwrlibrary.org/"" target=""_blank"">Website</a><br>"
"259","Danbury Public Library","Library","1007 N Main St Danbury, NC 27016","https://www.nwrlibrary.org/","(336) 593-2419",36.41136043,-80.2141,"Free",NA,"Library","<B>Danbury Public Library</B><br><B>Library</B><br><B>Charge: </B>Free<br><B>Address: </B>1007 N Main St Danbury, NC 27016<br><a href=""https://www.nwrlibrary.org/"" target=""_blank"">Website</a><br>"
"260","Dobson Community Library","Library","113 Crutchfield St Dobson, NC 27017","https://www.nwrlibrary.org/","(336) 386-8208",36.3948304,-80.7234,"Free",NA,"Library","<B>Dobson Community Library</B><br><B>Library</B><br><B>Charge: </B>Free<br><B>Address: </B>113 Crutchfield St Dobson, NC 27017<br><a href=""https://www.nwrlibrary.org/"" target=""_blank"">Website</a><br>"
"261","East Bend Public Library","Library","420 Flint Hill Rd East Bend, NC 27018","https://www.nwrlibrary.org/","(336) 699-3890",36.2096899,-80.5048,"Free",NA,"Library","<B>East Bend Public Library</B><br><B>Library</B><br><B>Charge: </B>Free<br><B>Address: </B>420 Flint Hill Rd East Bend, NC 27018<br><a href=""https://www.nwrlibrary.org/"" target=""_blank"">Website</a><br>"
"262","Elkin Public Library","Library","111 N Front St Elkin, NC 28621","https://www.nwrlibrary.org/","(336) 835-5586",36.24376226,-80.8542,"Free",NA,"Library","<B>Elkin Public Library</B><br><B>Library</B><br><B>Charge: </B>Free<br><B>Address: </B>111 N Front St Elkin, NC 28621<br><a href=""https://www.nwrlibrary.org/"" target=""_blank"">Website</a><br>"
"263","Jonesville Public Library","Library","560 Winston Rd Jonesville, NC 28642","https://www.nwrlibrary.org/","(336) 835-7604",36.24022909,-80.8334,"Free",NA,"Library","<B>Jonesville Public Library</B><br><B>Library</B><br><B>Charge: </B>Free<br><B>Address: </B>560 Winston Rd Jonesville, NC 28642<br><a href=""https://www.nwrlibrary.org/"" target=""_blank"">Website</a><br>"
"264","King Public Library","Library","101 Pilot View Dr King, NC 27021","https://www.nwrlibrary.org/","(336) 983-3868",36.2834589,-80.3642,"Free",NA,"Library","<B>King Public Library</B><br><B>Library</B><br><B>Charge: </B>Free<br><B>Address: </B>101 Pilot View Dr King, NC 27021<br><a href=""https://www.nwrlibrary.org/"" target=""_blank"">Website</a><br>"
"265","Lowgap Public Library","Library","5210 W Pine St Lowgap, NC 27024","https://www.nwrlibrary.org/","(336) 352-3000",36.48155794,-80.761,"Free",NA,"Library","<B>Lowgap Public Library</B><br><B>Library</B><br><B>Charge: </B>Free<br><B>Address: </B>5210 W Pine St Lowgap, NC 27024<br><a href=""https://www.nwrlibrary.org/"" target=""_blank"">Website</a><br>"
"266","Mount Airy Public Library","Library","145 Rockford St Mount Airy, NC 27030","https://www.nwrlibrary.org/","(336) 789-5108",36.49852227,-80.6075,"Free",NA,"Library","<B>Mount Airy Public Library</B><br><B>Library</B><br><B>Charge: </B>Free<br><B>Address: </B>145 Rockford St Mount Airy, NC 27030<br><a href=""https://www.nwrlibrary.org/"" target=""_blank"">Website</a><br>"
"267","Yadkin County Public Library","Library","233 E Main St Yadkinville, NC 27055","https://www.nwrlibrary.org/","(336) 679-8792",36.13455522,-80.658,"Free",NA,"Library","<B>Yadkin County Public Library</B><br><B>Library</B><br><B>Charge: </B>Free<br><B>Address: </B>233 E Main St Yadkinville, NC 27055<br><a href=""https://www.nwrlibrary.org/"" target=""_blank"">Website</a><br>"
"268","Boonville Community Public Library","Library","121 W Main St Boonville, NC 27011","https://www.nwrlibrary.org/","(336) 367-7737",36.23270566,-80.7089,"Free",NA,"Library","<B>Boonville Community Public Library</B><br><B>Library</B><br><B>Charge: </B>Free<br><B>Address: </B>121 W Main St Boonville, NC 27011<br><a href=""https://www.nwrlibrary.org/"" target=""_blank"">Website</a><br>"
"269","Danbury Public Library Bookmobile","Library","1007 N Main St Danbury, NC 27016","https://www.nwrlibrary.org/","(336) 593-2419",36.41136043,-80.2141,"Free",NA,"Library","<B>Danbury Public Library Bookmobile</B><br><B>Library</B><br><B>Charge: </B>Free<br><B>Address: </B>1007 N Main St Danbury, NC 27016<br><a href=""https://www.nwrlibrary.org/"" target=""_blank"">Website</a><br>"
"270","Onslow County Public Library (Main)","Library","58 Doris Avenue E Jacksonville, NC 28540","https://www.onslowcountync.gov/150/library","(910) 455-7350",34.77761804,-77.4198,"Free",NA,"Library","<B>Onslow County Public Library (Main)</B><br><B>Library</B><br><B>Charge: </B>Free<br><B>Address: </B>58 Doris Avenue E Jacksonville, NC 28540<br><a href=""https://www.onslowcountync.gov/150/library"" target=""_blank"">Website</a><br>"
"271","Richlands Public Library","Library","299 S Wilmington St Richlands, NC 28574","https://www.onslowcountync.gov/150/library","(910) 324-5321",34.90201158,-77.5448,"Free",NA,"Library","<B>Richlands Public Library</B><br><B>Library</B><br><B>Charge: </B>Free<br><B>Address: </B>299 S Wilmington St Richlands, NC 28574<br><a href=""https://www.onslowcountync.gov/150/library"" target=""_blank"">Website</a><br>"
"272","Sneads Ferry Branch Library","Library","1330 Highway 210 Sneads Ferry, NC 28460","https://www.onslowcountync.gov/150/library","(910) 327-6471",34.52445046,-77.4354,"Free",NA,"Library","<B>Sneads Ferry Branch Library</B><br><B>Library</B><br><B>Charge: </B>Free<br><B>Address: </B>1330 Highway 210 Sneads Ferry, NC 28460<br><a href=""https://www.onslowcountync.gov/150/library"" target=""_blank"">Website</a><br>"
"273","Swansboro Branch Library","Library","1460 W Corbett Ave Swansboro, NC 28584","https://www.onslowcountync.gov/150/library","(910) 326-4888",34.70649433,-77.1597,"Free",NA,"Library","<B>Swansboro Branch Library</B><br><B>Library</B><br><B>Charge: </B>Free<br><B>Address: </B>1460 W Corbett Ave Swansboro, NC 28584<br><a href=""https://www.onslowcountync.gov/150/library"" target=""_blank"">Website</a><br>"
"274","Carrboro Branch Library/McDougle Middle School","Library","900 Old Fayetteville Rd Chapel Hill, NC 27516","https://www.orangecountync.gov/156/library","(919) 969-3006",35.92676641,-79.1002,"Free",NA,"Library","<B>Carrboro Branch Library/McDougle Middle School</B><br><B>Library</B><br><B>Charge: </B>Free<br><B>Address: </B>900 Old Fayetteville Rd Chapel Hill, NC 27516<br><a href=""https://www.orangecountync.gov/156/library"" target=""_blank"">Website</a><br>"
"275","Carrboro Cybrary","Library","100 N Greensboro St Carrboro, NC 27510","https://www.orangecountync.gov/156/library","(919) 918-7387",35.91035646,-79.0722,"Free",NA,"Library","<B>Carrboro Cybrary</B><br><B>Library</B><br><B>Charge: </B>Free<br><B>Address: </B>100 N Greensboro St Carrboro, NC 27510<br><a href=""https://www.orangecountync.gov/156/library"" target=""_blank"">Website</a><br>"
"276","Orange County Public Library (Main)","Library","137 W Margaret Ln Hillsborough, NC 27278","https://www.orangecountync.gov/156/library","(919) 245-2525",36.07443738,-79.1002,"Free",NA,"Library","<B>Orange County Public Library (Main)</B><br><B>Library</B><br><B>Charge: </B>Free<br><B>Address: </B>137 W Margaret Ln Hillsborough, NC 27278<br><a href=""https://www.orangecountync.gov/156/library"" target=""_blank"">Website</a><br>"
"277","Pender County Public Library (Main)","Library","103 S Cowan St Burgaw, NC 28425","https://penderpubliclibrary.org/","(910) 259-1234",34.55189338,-77.9239,"Free",NA,"Library","<B>Pender County Public Library (Main)</B><br><B>Library</B><br><B>Charge: </B>Free<br><B>Address: </B>103 S Cowan St Burgaw, NC 28425<br><a href=""https://penderpubliclibrary.org/"" target=""_blank"">Website</a><br>"
"278","Perry Memorial Library","Library","205 Breckenridge St Henderson, NC 27536","https://www.perrylibrary.org","(252) 438-3316",36.32710489,-78.4043,"Free",NA,"Library","<B>Perry Memorial Library</B><br><B>Library</B><br><B>Charge: </B>Free<br><B>Address: </B>205 Breckenridge St Henderson, NC 27536<br><a href=""https://www.perrylibrary.org"" target=""_blank"">Website</a><br>"
"279","Person County Public Library","Library","319 S Main St Roxboro, NC 27573","https://www.personcountync.gov/government/public-library","(336) 597-7881",36.39074168,-78.9855,"Free",NA,"Library","<B>Person County Public Library</B><br><B>Library</B><br><B>Charge: </B>Free<br><B>Address: </B>319 S Main St Roxboro, NC 27573<br><a href=""https://www.personcountync.gov/government/public-library"" target=""_blank"">Website</a><br>"
"280","Perquimans County Library","Library","514 S Church St Hertford, NC 27944","https://pettigrewlibraries.libguides.com/prl","(252) 426-5319",36.18278055,-76.4652,"Free",NA,"Library","<B>Perquimans County Library</B><br><B>Library</B><br><B>Charge: </B>Free<br><B>Address: </B>514 S Church St Hertford, NC 27944<br><a href=""https://pettigrewlibraries.libguides.com/prl"" target=""_blank"">Website</a><br>"
"281","Shepard-Pruden Memorial Library","Library","106 W Water St Edenton, NC 27932","https://pettigrewlibraries.libguides.com/prl","(252) 482-4112",36.05711993,-76.6097,"Free",NA,"Library","<B>Shepard-Pruden Memorial Library</B><br><B>Library</B><br><B>Charge: </B>Free<br><B>Address: </B>106 W Water St Edenton, NC 27932<br><a href=""https://pettigrewlibraries.libguides.com/prl"" target=""_blank"">Website</a><br>"
"282","Tyrrell County Library","Library","414 Main St Columbia, NC 27925","https://pettigrewlibraries.libguides.com/prl","(252) 796-3771",35.91788817,-76.2515,"Free",NA,"Library","<B>Tyrrell County Library</B><br><B>Library</B><br><B>Charge: </B>Free<br><B>Address: </B>414 Main St Columbia, NC 27925<br><a href=""https://pettigrewlibraries.libguides.com/prl"" target=""_blank"">Website</a><br>"
"283","Washington County Library","Library","201 E Third St Plymouth, NC 27962","https://pettigrewlibraries.libguides.com/prl","(252) 793-2113",35.86543687,-76.7481,"Free",NA,"Library","<B>Washington County Library</B><br><B>Library</B><br><B>Charge: </B>Free<br><B>Address: </B>201 E Third St Plymouth, NC 27962<br><a href=""https://pettigrewlibraries.libguides.com/prl"" target=""_blank"">Website</a><br>"
"284","Saluda Library","Library","44 West Main St Saluda, NC 28773","https://www.polklibrary.org/","(828) 722-5218",35.23634601,-82.3497,"Free",NA,"Library","<B>Saluda Library</B><br><B>Library</B><br><B>Charge: </B>Free<br><B>Address: </B>44 West Main St Saluda, NC 28773<br><a href=""https://www.polklibrary.org/"" target=""_blank"">Website</a><br>"
"285","Columbus Library (Main)","Library","1289 W Mills St Columbus, NC 28722","https://www.polklibrary.org/","(828) 894-8721",35.24064173,-82.2177,"Free",NA,"Library","<B>Columbus Library (Main)</B><br><B>Library</B><br><B>Charge: </B>Free<br><B>Address: </B>1289 W Mills St Columbus, NC 28722<br><a href=""https://www.polklibrary.org/"" target=""_blank"">Website</a><br>"
"286","James Bryan Creech Library","Library","206 W Hatcher St Four Oaks, NC 27524","https://www.pljcs.org/","(919) 963-6013",35.44965458,-78.4341,"Free",NA,"Library","<B>James Bryan Creech Library</B><br><B>Library</B><br><B>Charge: </B>Free<br><B>Address: </B>206 W Hatcher St Four Oaks, NC 27524<br><a href=""https://www.pljcs.org/"" target=""_blank"">Website</a><br>"
"287","Kenly Public Library","Library","205 Edgerton St Kenly, NC 27542","https://www.pljcs.org/","(919) 284-4217",35.59216984,-78.1243,"Free",NA,"Library","<B>Kenly Public Library</B><br><B>Library</B><br><B>Charge: </B>Free<br><B>Address: </B>205 Edgerton St Kenly, NC 27542<br><a href=""https://www.pljcs.org/"" target=""_blank"">Website</a><br>"
"288","Mary Duncan Public Library","Library","100 W Main St Benson, NC 27504","https://www.pljcs.org/","(919) 894-3724",35.38093963,-78.5472,"Free",NA,"Library","<B>Mary Duncan Public Library</B><br><B>Library</B><br><B>Charge: </B>Free<br><B>Address: </B>100 W Main St Benson, NC 27504<br><a href=""https://www.pljcs.org/"" target=""_blank"">Website</a><br>"
"289","Princeton Public Library","Library","101 Doctor Donnie H. Jones, Jr Blvd Princeton, NC 27569","https://www.pljcs.org/","(919) 936-9996",35.46696105,-78.1583,"Free",NA,"Library","<B>Princeton Public Library</B><br><B>Library</B><br><B>Charge: </B>Free<br><B>Address: </B>101 Doctor Donnie H. Jones, Jr Blvd Princeton, NC 27569<br><a href=""https://www.pljcs.org/"" target=""_blank"">Website</a><br>"
"290","Selma Public Library","Library","301 N Pollock St Selma, NC 27576","https://www.pljcs.org/","(919) 965-8613",35.53806629,-78.2831,"Free",NA,"Library","<B>Selma Public Library</B><br><B>Library</B><br><B>Charge: </B>Free<br><B>Address: </B>301 N Pollock St Selma, NC 27576<br><a href=""https://www.pljcs.org/"" target=""_blank"">Website</a><br>"
"291","Archdale Public Library","Library","10433 S Main St Archdale, NC 27263","https://www.randolphlibrary.org/","(336) 431-3811",35.8931475,-79.9384,"Free",NA,"Library","<B>Archdale Public Library</B><br><B>Library</B><br><B>Charge: </B>Free<br><B>Address: </B>10433 S Main St Archdale, NC 27263<br><a href=""https://www.randolphlibrary.org/"" target=""_blank"">Website</a><br>"
"292","John W. Clark Public Library","Library","111 Sumner Pl Franklinville, NC 27248","https://www.randolphlibrary.org/","(336) 685-3100",35.74412395,-79.6943,"Free",NA,"Library","<B>John W. Clark Public Library</B><br><B>Library</B><br><B>Charge: </B>Free<br><B>Address: </B>111 Sumner Pl Franklinville, NC 27248<br><a href=""https://www.randolphlibrary.org/"" target=""_blank"">Website</a><br>"
"293","Liberty Public Library","Library","239 S Fayetteville St Liberty, NC 27298","https://www.randolphlibrary.org/","(336) 622-4605",35.84975907,-79.5702,"Free",NA,"Library","<B>Liberty Public Library</B><br><B>Library</B><br><B>Charge: </B>Free<br><B>Address: </B>239 S Fayetteville St Liberty, NC 27298<br><a href=""https://www.randolphlibrary.org/"" target=""_blank"">Website</a><br>"
"294","Ramseur Public Library","Library","1512 Main St Ramseur, NC 27316","https://www.randolphlibrary.org/","(336) 824-2232",35.73328644,-79.6546,"Free",NA,"Library","<B>Ramseur Public Library</B><br><B>Library</B><br><B>Charge: </B>Free<br><B>Address: </B>1512 Main St Ramseur, NC 27316<br><a href=""https://www.randolphlibrary.org/"" target=""_blank"">Website</a><br>"
"295","Randleman Public Library","Library","142 W Academy Street Randleman, NC 27317","https://www.randolphlibrary.org/","(336) 498-3141",35.81794803,-79.8054,"Free",NA,"Library","<B>Randleman Public Library</B><br><B>Library</B><br><B>Charge: </B>Free<br><B>Address: </B>142 W Academy Street Randleman, NC 27317<br><a href=""https://www.randolphlibrary.org/"" target=""_blank"">Website</a><br>"
"296","Randolph Public Library (Main)","Library","201 Worth St Asheboro, NC 27203","https://www.randolphlibrary.org/","(336) 318-6800",35.7058754,-79.8118,"Free",NA,"Library","<B>Randolph Public Library (Main)</B><br><B>Library</B><br><B>Charge: </B>Free<br><B>Address: </B>201 Worth St Asheboro, NC 27203<br><a href=""https://www.randolphlibrary.org/"" target=""_blank"">Website</a><br>"
"297","Seagrove Public Library","Library","530 Seagrove Plank Rd Seagrove, NC 27341","https://www.randolphlibrary.org/","(336) 873-7521",35.552173,-79.7811,"Free",NA,"Library","<B>Seagrove Public Library</B><br><B>Library</B><br><B>Charge: </B>Free<br><B>Address: </B>530 Seagrove Plank Rd Seagrove, NC 27341<br><a href=""https://www.randolphlibrary.org/"" target=""_blank"">Website</a><br>"
"298","Roanoke Rapids Public Library","Library","319 Roanoke Ave Roanoke Rapids, NC 27870","https://www.youseemore.com/roanokerapids/","(252) 533-2890",36.46751077,-77.6515,"Free",NA,"Library","<B>Roanoke Rapids Public Library</B><br><B>Library</B><br><B>Charge: </B>Free<br><B>Address: </B>319 Roanoke Ave Roanoke Rapids, NC 27870<br><a href=""https://www.youseemore.com/roanokerapids/"" target=""_blank"">Website</a><br>"
"299","McMillan Memorial Library","Library","205 E 2nd Ave Red Springs, NC 28377","https://www.robesoncountylibrary.org/","(910) 843-4205",34.81770377,-79.1809,"Free",NA,"Library","<B>McMillan Memorial Library</B><br><B>Library</B><br><B>Charge: </B>Free<br><B>Address: </B>205 E 2nd Ave Red Springs, NC 28377<br><a href=""https://www.robesoncountylibrary.org/"" target=""_blank"">Website</a><br>"
"300","Gilbert Patterson Memorial Public Library","Library","210 N Florence St Maxton, NC 28364","https://www.robesoncountylibrary.org/","(910) 844-3884",34.73850749,-79.3499,"Free",NA,"Library","<B>Gilbert Patterson Memorial Public Library</B><br><B>Library</B><br><B>Charge: </B>Free<br><B>Address: </B>210 N Florence St Maxton, NC 28364<br><a href=""https://www.robesoncountylibrary.org/"" target=""_blank"">Website</a><br>"
"301","Fairmont Public Library","Library","105 S Main St Fairmont, NC 28340","https://www.robesoncountylibrary.org/","(910) 628-9331",34.49793745,-79.1143,"Free",NA,"Library","<B>Fairmont Public Library</B><br><B>Library</B><br><B>Charge: </B>Free<br><B>Address: </B>105 S Main St Fairmont, NC 28340<br><a href=""https://www.robesoncountylibrary.org/"" target=""_blank"">Website</a><br>"
"302","Pembroke Public Library","Library","413 S Blaine St Pembroke, NC 28372","https://www.robesoncountylibrary.org/","(910) 521-1554",34.67649311,-79.193,"Free",NA,"Library","<B>Pembroke Public Library</B><br><B>Library</B><br><B>Charge: </B>Free<br><B>Address: </B>413 S Blaine St Pembroke, NC 28372<br><a href=""https://www.robesoncountylibrary.org/"" target=""_blank"">Website</a><br>"
"303","Robeson County Public Library (Main)","Library","101 N Chestnut St Lumberton, NC 28358","https://www.robesoncountylibrary.org/","(910) 738-4859",34.61720185,-79.0079,"Free",NA,"Library","<B>Robeson County Public Library (Main)</B><br><B>Library</B><br><B>Charge: </B>Free<br><B>Address: </B>101 N Chestnut St Lumberton, NC 28358<br><a href=""https://www.robesoncountylibrary.org/"" target=""_blank"">Website</a><br>"
"304","Rowland Public Library","Library","113 E Main St Rowland, NC 28383","https://www.robesoncountylibrary.org/","(910) 422-3996",34.5361351,-79.2902,"Free",NA,"Library","<B>Rowland Public Library</B><br><B>Library</B><br><B>Charge: </B>Free<br><B>Address: </B>113 E Main St Rowland, NC 28383<br><a href=""https://www.robesoncountylibrary.org/"" target=""_blank"">Website</a><br>"
"305","Robeson County Public Library Bookmobile","Library","101 N Chestnut St Lumberton, NC 28358","https://www.robesoncountylibrary.org/","(910) 738-4859",34.61720185,-79.0079,"Free",NA,"Library","<B>Robeson County Public Library Bookmobile</B><br><B>Library</B><br><B>Charge: </B>Free<br><B>Address: </B>101 N Chestnut St Lumberton, NC 28358<br><a href=""https://www.robesoncountylibrary.org/"" target=""_blank"">Website</a><br>"
"306","St. Pauls Public Library","Library","221 W Broad St Saint Pauls, NC 28384","https://www.robesoncountylibrary.org/","(910) 865-4002",34.80677102,-78.9728,"Free",NA,"Library","<B>St. Pauls Public Library</B><br><B>Library</B><br><B>Charge: </B>Free<br><B>Address: </B>221 W Broad St Saint Pauls, NC 28384<br><a href=""https://www.robesoncountylibrary.org/"" target=""_blank"">Website</a><br>"
"307","Eden Branch Library","Library","598 S Pierce St Eden, NC 27288","https://rcpl.libguides.com/EdenLibrary/Home","(336) 623-3168",36.49409597,-79.7366,"Free",NA,"Library","<B>Eden Branch Library</B><br><B>Library</B><br><B>Charge: </B>Free<br><B>Address: </B>598 S Pierce St Eden, NC 27288<br><a href=""https://rcpl.libguides.com/EdenLibrary/Home"" target=""_blank"">Website</a><br>"
"308","Madison-Mayodan Public Library","Library","611 Burton St Madison, NC 27025","https://rcpl.libguides.com/Madison-MayodanLibrary/Home","(336) 548-6553",36.40189113,-79.9708,"Free",NA,"Library","<B>Madison-Mayodan Public Library</B><br><B>Library</B><br><B>Charge: </B>Free<br><B>Address: </B>611 Burton St Madison, NC 27025<br><a href=""https://rcpl.libguides.com/Madison-MayodanLibrary/Home"" target=""_blank"">Website</a><br>"
"309","Reidsville Branch Library","Library","204 W Morehead St Reidsville, NC 27320","https://rcpl.libguides.com/ReidsvilleLibrary/Home","(336) 349-8476",36.36164368,-79.6644,"Free",NA,"Library","<B>Reidsville Branch Library</B><br><B>Library</B><br><B>Charge: </B>Free<br><B>Address: </B>204 W Morehead St Reidsville, NC 27320<br><a href=""https://rcpl.libguides.com/ReidsvilleLibrary/Home"" target=""_blank"">Website</a><br>"
"310","Stoneville Branch Library","Library","201 E Main St Stoneville, NC 27048","https://rcpl.libguides.com/StonevilleLibrary/Home","(336) 573-9040",36.46652438,-79.9055,"Free",NA,"Library","<B>Stoneville Branch Library</B><br><B>Library</B><br><B>Charge: </B>Free<br><B>Address: </B>201 E Main St Stoneville, NC 27048<br><a href=""https://rcpl.libguides.com/StonevilleLibrary/Home"" target=""_blank"">Website</a><br>"
"311","East Branch Library","Library","110 Broad St Rockwell, NC 28138","https://www.rowancountync.gov/307/library","(704) 216-7838",35.55218641,-80.4053,"Free",NA,"Library","<B>East Branch Library</B><br><B>Library</B><br><B>Charge: </B>Free<br><B>Address: </B>110 Broad St Rockwell, NC 28138<br><a href=""https://www.rowancountync.gov/307/library"" target=""_blank"">Website</a><br>"
"312","Rowan Public Library (Main)","Library","201 W Fisher St Salisbury, NC 28144","https://www.rowancountync.gov/307/library","(704) 216-8228",35.66746169,-80.4722,"Free",NA,"Library","<B>Rowan Public Library (Main)</B><br><B>Library</B><br><B>Charge: </B>Free<br><B>Address: </B>201 W Fisher St Salisbury, NC 28144<br><a href=""https://www.rowancountync.gov/307/library"" target=""_blank"">Website</a><br>"
"313","Rowan Public Library Bookmobile","Library","201 W Fisher St Salisbury, NC 28144","https://www.rowancountync.gov/307/library","(704) 216-8270",35.66746169,-80.4722,"Free",NA,"Library","<B>Rowan Public Library Bookmobile</B><br><B>Library</B><br><B>Charge: </B>Free<br><B>Address: </B>201 W Fisher St Salisbury, NC 28144<br><a href=""https://www.rowancountync.gov/307/library"" target=""_blank"">Website</a><br>"
"314","South Rowan Regional Library","Library","920 Kimball Rd China Grove, NC 28088","https://www.rowancountync.gov/307/library","(704) 216-7727",35.56597265,-80.6023,"Free",NA,"Library","<B>South Rowan Regional Library</B><br><B>Library</B><br><B>Charge: </B>Free<br><B>Address: </B>920 Kimball Rd China Grove, NC 28088<br><a href=""https://www.rowancountync.gov/307/library"" target=""_blank"">Website</a><br>"
"315","Haynes Public Library","Library","141 N Main St, Ste 110 Henrietta, NC 28076","https://www.rutherfordcountylibrary.org/","(828) 288-4039",35.26927838,-81.7911,"Free",NA,"Library","<B>Haynes Public Library</B><br><B>Library</B><br><B>Charge: </B>Free<br><B>Address: </B>141 N Main St, Ste 110 Henrietta, NC 28076<br><a href=""https://www.rutherfordcountylibrary.org/"" target=""_blank"">Website</a><br>"
"316","Mountains Branch Library","Library","150 Bills Creek Rd Lake Lure, NC 28746","https://www.rutherfordcountylibrary.org/","(828) 287-6392",35.42541077,-82.1625,"Free",NA,"Library","<B>Mountains Branch Library</B><br><B>Library</B><br><B>Charge: </B>Free<br><B>Address: </B>150 Bills Creek Rd Lake Lure, NC 28746<br><a href=""https://www.rutherfordcountylibrary.org/"" target=""_blank"">Website</a><br>"
"317","Rutherford County Library (Main)","Library","255 Callahan Koon Rd Spindale, NC 28160","https://www.rutherfordcountylibrary.org/","(828) 287-6115",35.35205581,-81.911,"Free",NA,"Library","<B>Rutherford County Library (Main)</B><br><B>Library</B><br><B>Charge: </B>Free<br><B>Address: </B>255 Callahan Koon Rd Spindale, NC 28160<br><a href=""https://www.rutherfordcountylibrary.org/"" target=""_blank"">Website</a><br>"
"318","Bryan Memorial Library","Library","302 W Weeksdale St Newton Grove, NC 28366","https://www.sampsonnc.com/departments/library_services/","(910) 594-1260",35.24289323,-78.3559,"Free",NA,"Library","<B>Bryan Memorial Library</B><br><B>Library</B><br><B>Charge: </B>Free<br><B>Address: </B>302 W Weeksdale St Newton Grove, NC 28366<br><a href=""https://www.sampsonnc.com/departments/library_services/"" target=""_blank"">Website</a><br>"
"319","Miriam B. Lamb Memorial Library","Library","144 S Church Ave Garland, NC 28441","https://www.sampsonnc.com/departments/library_services/","(910) 529-2441",34.78555885,-78.3965,"Free",NA,"Library","<B>Miriam B. Lamb Memorial Library</B><br><B>Library</B><br><B>Charge: </B>Free<br><B>Address: </B>144 S Church Ave Garland, NC 28441<br><a href=""https://www.sampsonnc.com/departments/library_services/"" target=""_blank"">Website</a><br>"
"320","Roseboro Public Library","Library","300 W Roseboro St Roseboro, NC 28382","https://www.sampsonnc.com/departments/library_services/","(910) 525-5436",34.95217867,-78.5128,"Free",NA,"Library","<B>Roseboro Public Library</B><br><B>Library</B><br><B>Charge: </B>Free<br><B>Address: </B>300 W Roseboro St Roseboro, NC 28382<br><a href=""https://www.sampsonnc.com/departments/library_services/"" target=""_blank"">Website</a><br>"
"321","J.C. Holliday Library (Main)","Library","217 Graham St Clinton, NC 28328","https://www.sampsonnc.com/departments/library_services/","(910) 592-4153",34.99730784,-78.3204,"Free",NA,"Library","<B>J.C. Holliday Library (Main)</B><br><B>Library</B><br><B>Charge: </B>Free<br><B>Address: </B>217 Graham St Clinton, NC 28328<br><a href=""https://www.sampsonnc.com/departments/library_services/"" target=""_blank"">Website</a><br>"
"322","Allen Library","Library","307 Page St Biscoe, NC 27209","https://srls.libguides.com/","(910) 428-2551",35.36381629,-79.7806,"Free",NA,"Library","<B>Allen Library</B><br><B>Library</B><br><B>Charge: </B>Free<br><B>Address: </B>307 Page St Biscoe, NC 27209<br><a href=""https://srls.libguides.com/"" target=""_blank"">Website</a><br>"
"323","Currie Memorial Library","Library","138 S School St Candor, NC 27229","https://srls.libguides.com/","(910) 974-4033",35.29424943,-79.7466,"Free",NA,"Library","<B>Currie Memorial Library</B><br><B>Library</B><br><B>Charge: </B>Free<br><B>Address: </B>138 S School St Candor, NC 27229<br><a href=""https://srls.libguides.com/"" target=""_blank"">Website</a><br>"
"324","Hamlet Public Library","Library","302 Main St Hamlet, NC 28345","https://srls.libguides.com/","(910) 582-3477",34.88575681,-79.7037,"Free",NA,"Library","<B>Hamlet Public Library</B><br><B>Library</B><br><B>Charge: </B>Free<br><B>Address: </B>302 Main St Hamlet, NC 28345<br><a href=""https://srls.libguides.com/"" target=""_blank"">Website</a><br>"
"325","Hampton B. Allen Library","Library","120 S Greene St Wadesboro, NC 28170","https://srls.libguides.com/","(704) 694-5177",34.96605832,-80.0769,"Free",NA,"Library","<B>Hampton B. Allen Library</B><br><B>Library</B><br><B>Charge: </B>Free<br><B>Address: </B>120 S Greene St Wadesboro, NC 28170<br><a href=""https://srls.libguides.com/"" target=""_blank"">Website</a><br>"
"326","Hoke County Public Library","Library","334 N Main St Raeford, NC 28376","https://srls.libguides.com/","(910) 875-2502",34.98366667,-79.224,"Free",NA,"Library","<B>Hoke County Public Library</B><br><B>Library</B><br><B>Charge: </B>Free<br><B>Address: </B>334 N Main St Raeford, NC 28376<br><a href=""https://srls.libguides.com/"" target=""_blank"">Website</a><br>"
"327","Kemp Sugg Memorial Library","Library","279 2nd St Ellerbe, NC 28338","https://srls.libguides.com/","(910) 652-6130",35.07314788,-79.7625,"Free",NA,"Library","<B>Kemp Sugg Memorial Library</B><br><B>Library</B><br><B>Charge: </B>Free<br><B>Address: </B>279 2nd St Ellerbe, NC 28338<br><a href=""https://srls.libguides.com/"" target=""_blank"">Website</a><br>"
"328","Leath Memorial Library","Library","412 E Franklin St Rockingham, NC 28379","https://srls.libguides.com/","(910) 895-6337",34.93848762,-79.7707,"Free",NA,"Library","<B>Leath Memorial Library</B><br><B>Library</B><br><B>Charge: </B>Free<br><B>Address: </B>412 E Franklin St Rockingham, NC 28379<br><a href=""https://srls.libguides.com/"" target=""_blank"">Website</a><br>"
"329","Montgomery County Library","Library","215 W Main St Troy, NC 27371","https://srls.libguides.com/","(910) 572-1311",35.35858676,-79.8949,"Free",NA,"Library","<B>Montgomery County Library</B><br><B>Library</B><br><B>Charge: </B>Free<br><B>Address: </B>215 W Main St Troy, NC 27371<br><a href=""https://srls.libguides.com/"" target=""_blank"">Website</a><br>"
"330","Moore County Library","Library","101 Saunders St Carthage, NC 28327","https://srls.libguides.com/","(910) 947-5335",35.34487937,-79.4179,"Free",NA,"Library","<B>Moore County Library</B><br><B>Library</B><br><B>Charge: </B>Free<br><B>Address: </B>101 Saunders St Carthage, NC 28327<br><a href=""https://srls.libguides.com/"" target=""_blank"">Website</a><br>"
"331","Mount Gilead Library","Library","110 W Allenton St Mount Gilead, NC 27306","https://srls.libguides.com/","(910) 439-6651",35.21482628,-80.0015,"Free",NA,"Library","<B>Mount Gilead Library</B><br><B>Library</B><br><B>Charge: </B>Free<br><B>Address: </B>110 W Allenton St Mount Gilead, NC 27306<br><a href=""https://srls.libguides.com/"" target=""_blank"">Website</a><br>"
"332","Page Memorial Library","Library","100 S Poplar St Aberdeen, NC 28315","https://srls.libguides.com/","(910) 944-1200",35.13115468,-79.4289,"Free",NA,"Library","<B>Page Memorial Library</B><br><B>Library</B><br><B>Charge: </B>Free<br><B>Address: </B>100 S Poplar St Aberdeen, NC 28315<br><a href=""https://srls.libguides.com/"" target=""_blank"">Website</a><br>"
"333","Pinebluff Public Library","Library","305 E Baltimore Ave Pinebluff, NC 28373","https://srls.libguides.com/","(910) 281-3004",35.10879847,-79.4683,"Free",NA,"Library","<B>Pinebluff Public Library</B><br><B>Library</B><br><B>Charge: </B>Free<br><B>Address: </B>305 E Baltimore Ave Pinebluff, NC 28373<br><a href=""https://srls.libguides.com/"" target=""_blank"">Website</a><br>"
"334","Robbins Area Library","Library","161 E Magnolia Dr Robbins, NC 27325","https://srls.libguides.com/","(910) 948-4000",35.43178834,-79.5874,"Free",NA,"Library","<B>Robbins Area Library</B><br><B>Library</B><br><B>Charge: </B>Free<br><B>Address: </B>161 E Magnolia Dr Robbins, NC 27325<br><a href=""https://srls.libguides.com/"" target=""_blank"">Website</a><br>"
"335","Star Branch Library","Library","222 S Main St Star, NC 27356","https://srls.libguides.com/","(910) 428-2338",35.39644676,-79.7844,"Free",NA,"Library","<B>Star Branch Library</B><br><B>Library</B><br><B>Charge: </B>Free<br><B>Address: </B>222 S Main St Star, NC 27356<br><a href=""https://srls.libguides.com/"" target=""_blank"">Website</a><br>"
"336","Vass Area Library","Library","128 Seaboard St Vass, NC 28394","https://srls.libguides.com/","(910) 245-2200",35.25603944,-79.2818,"Free",NA,"Library","<B>Vass Area Library</B><br><B>Library</B><br><B>Charge: </B>Free<br><B>Address: </B>128 Seaboard St Vass, NC 28394<br><a href=""https://srls.libguides.com/"" target=""_blank"">Website</a><br>"
"337","Scotland County Memorial Library","Library","312 W Church St Laurinburg, NC 28352","https://www.scotlandcounty.org/188/library","(910) 276-0563",34.77508424,-79.4653,"Free",NA,"Library","<B>Scotland County Memorial Library</B><br><B>Library</B><br><B>Charge: </B>Free<br><B>Address: </B>312 W Church St Laurinburg, NC 28352<br><a href=""https://www.scotlandcounty.org/188/library"" target=""_blank"">Website</a><br>"
"338","Scotland County Memorial Library Bookmobile","Library","312 W Church St Laurinburg, NC 28352","https://www.scotlandcounty.org/188/library","(910) 276-0563",34.77508424,-79.4653,"Free",NA,"Library","<B>Scotland County Memorial Library Bookmobile</B><br><B>Library</B><br><B>Charge: </B>Free<br><B>Address: </B>312 W Church St Laurinburg, NC 28352<br><a href=""https://www.scotlandcounty.org/188/library"" target=""_blank"">Website</a><br>"
"339","Blount Library","Library","201 Ives St Bethel, NC 27812","https://www.sheppardlibrary.org/home","(252) 825-0782",35.80852695,-77.379,"Free",NA,"Library","<B>Blount Library</B><br><B>Library</B><br><B>Charge: </B>Free<br><B>Address: </B>201 Ives St Bethel, NC 27812<br><a href=""https://www.sheppardlibrary.org/home"" target=""_blank"">Website</a><br>"
"340","Winterville Public Library","Library","2613 Railroad St Winterville, NC 28590","https://www.sheppardlibrary.org/home","(252) 756-1786",35.52971656,-77.4015,"Free",NA,"Library","<B>Winterville Public Library</B><br><B>Library</B><br><B>Charge: </B>Free<br><B>Address: </B>2613 Railroad St Winterville, NC 28590<br><a href=""https://www.sheppardlibrary.org/home"" target=""_blank"">Website</a><br>"
"341","Carver Branch Library","Library","618 W 14th Ave Greenville, NC 27834","https://www.sheppardlibrary.org/home","(252) 329-4583",35.61121097,-77.3873,"Free",NA,"Library","<B>Carver Branch Library</B><br><B>Library</B><br><B>Charge: </B>Free<br><B>Address: </B>618 W 14th Ave Greenville, NC 27834<br><a href=""https://www.sheppardlibrary.org/home"" target=""_blank"">Website</a><br>"
"342","East Branch Library","Library","2000 Cedar Ln Greenville, NC 27858","https://www.sheppardlibrary.org/home","(252) 329-4582",35.59540304,-77.3428,"Free",NA,"Library","<B>East Branch Library</B><br><B>Library</B><br><B>Charge: </B>Free<br><B>Address: </B>2000 Cedar Ln Greenville, NC 27858<br><a href=""https://www.sheppardlibrary.org/home"" target=""_blank"">Website</a><br>"
"343","Sheppard Memorial Library (Main)","Library","530 S Evans St Greenville, NC 27858","https://www.sheppardlibrary.org/home","(252) 329-4580",35.61018047,-77.3734,"Free",NA,"Library","<B>Sheppard Memorial Library (Main)</B><br><B>Library</B><br><B>Charge: </B>Free<br><B>Address: </B>530 S Evans St Greenville, NC 27858<br><a href=""https://www.sheppardlibrary.org/home"" target=""_blank"">Website</a><br>"
"344","Pitt County Bookmobile","Library","530 S Evans St Greenville, NC 27858","https://www.sheppardlibrary.org/home","(252) 329-4251",35.61018047,-77.3734,"Free",NA,"Library","<B>Pitt County Bookmobile</B><br><B>Library</B><br><B>Charge: </B>Free<br><B>Address: </B>530 S Evans St Greenville, NC 27858<br><a href=""https://www.sheppardlibrary.org/home"" target=""_blank"">Website</a><br>"
"345","Southern Pines Public Library","Library","170 W Connecticut Ave Southern Pines, NC 28387","https://www.southernpines.net/399/library-and-information-technology-servi","(910) 692-8235",35.17548473,-79.3895,"Free",NA,"Library","<B>Southern Pines Public Library</B><br><B>Library</B><br><B>Charge: </B>Free<br><B>Address: </B>170 W Connecticut Ave Southern Pines, NC 28387<br><a href=""https://www.southernpines.net/399/library-and-information-technology-servi"" target=""_blank"">Website</a><br>"
"346","Badin Branch Library","Library","62 Pine St Badin, NC 28009","https://www.stanlycountylibrary.org/","(704) 423-3218",35.40579752,-80.1111,"Free",NA,"Library","<B>Badin Branch Library</B><br><B>Library</B><br><B>Charge: </B>Free<br><B>Address: </B>62 Pine St Badin, NC 28009<br><a href=""https://www.stanlycountylibrary.org/"" target=""_blank"">Website</a><br>"
"347","Locust Branch Library","Library","213 Town Centre Dr Locust, NC 28097","https://www.stanlycountylibrary.org/","(704) 888-0103",35.25929643,-80.4317,"Free",NA,"Library","<B>Locust Branch Library</B><br><B>Library</B><br><B>Charge: </B>Free<br><B>Address: </B>213 Town Centre Dr Locust, NC 28097<br><a href=""https://www.stanlycountylibrary.org/"" target=""_blank"">Website</a><br>"
"348","Norwood Branch Library","Library","207 Pee Dee Ave Norwood, NC 28128","https://www.stanlycountylibrary.org/","(704) 474-3625",35.22582871,-80.1192,"Free",NA,"Library","<B>Norwood Branch Library</B><br><B>Library</B><br><B>Charge: </B>Free<br><B>Address: </B>207 Pee Dee Ave Norwood, NC 28128<br><a href=""https://www.stanlycountylibrary.org/"" target=""_blank"">Website</a><br>"
"349","Oakboro Branch Library","Library","214 S Main St Oakboro, NC 28129","https://www.stanlycountylibrary.org/","(704) 485-4310",35.22256166,-80.3246,"Free",NA,"Library","<B>Oakboro Branch Library</B><br><B>Library</B><br><B>Charge: </B>Free<br><B>Address: </B>214 S Main St Oakboro, NC 28129<br><a href=""https://www.stanlycountylibrary.org/"" target=""_blank"">Website</a><br>"
"350","Stanly County Public Library (Main)","Library","133 E Main St Albemarle, NC 28001","https://www.stanlycountylibrary.org/","(704) 986-3765",35.35037965,-80.1975,"Free",NA,"Library","<B>Stanly County Public Library (Main)</B><br><B>Library</B><br><B>Charge: </B>Free<br><B>Address: </B>133 E Main St Albemarle, NC 28001<br><a href=""https://www.stanlycountylibrary.org/"" target=""_blank"">Website</a><br>"
"351","Transylvania County Library","Library","212 S Gaston St Brevard, NC 28712","https://library.transylvaniacounty.org/","(828) 884-3151",35.22972269,-82.7355,"Free",NA,"Library","<B>Transylvania County Library</B><br><B>Library</B><br><B>Charge: </B>Free<br><B>Address: </B>212 S Gaston St Brevard, NC 28712<br><a href=""https://library.transylvaniacounty.org/"" target=""_blank"">Website</a><br>"
"352","Transylvania County Library Bookmobile","Library","212 S Gaston St Brevard, NC 28712","https://library.transylvaniacounty.org/","(828) 884-3151",35.22972269,-82.7355,"Free",NA,"Library","<B>Transylvania County Library Bookmobile</B><br><B>Library</B><br><B>Charge: </B>Free<br><B>Address: </B>212 S Gaston St Brevard, NC 28712<br><a href=""https://library.transylvaniacounty.org/"" target=""_blank"">Website</a><br>"
"353","Union West Regional Library","Library","123 Unionville-Indian Trail Rd Indian Trail, NC 28079","https://www.uclnc.org/home-library","(704) 821-7475",35.07812098,-80.6661,"Free",NA,"Library","<B>Union West Regional Library</B><br><B>Library</B><br><B>Charge: </B>Free<br><B>Address: </B>123 Unionville-Indian Trail Rd Indian Trail, NC 28079<br><a href=""https://www.uclnc.org/home-library"" target=""_blank"">Website</a><br>"
"354","Lois Morgan Edwards Memorial Library","Library","414 Hasty St Marshville, NC 28103","https://www.uclnc.org/home-library","(704) 624-2828",34.99049405,-80.3641,"Free",NA,"Library","<B>Lois Morgan Edwards Memorial Library</B><br><B>Library</B><br><B>Charge: </B>Free<br><B>Address: </B>414 Hasty St Marshville, NC 28103<br><a href=""https://www.uclnc.org/home-library"" target=""_blank"">Website</a><br>"
"355","Union County Public Library (Main)","Library","316 E Windsor St Monroe, NC 28112","https://www.uclnc.org/home-library","(704) 283-8184",34.98134259,-80.5472,"Free",NA,"Library","<B>Union County Public Library (Main)</B><br><B>Library</B><br><B>Charge: </B>Free<br><B>Address: </B>316 E Windsor St Monroe, NC 28112<br><a href=""https://www.uclnc.org/home-library"" target=""_blank"">Website</a><br>"
"356","Waxhaw Library","Library","509 S Providence St Waxhaw, NC 28173","https://www.uclnc.org/home-library","(704) 843-3131",34.92224312,-80.7413,"Free",NA,"Library","<B>Waxhaw Library</B><br><B>Library</B><br><B>Charge: </B>Free<br><B>Address: </B>509 S Providence St Waxhaw, NC 28173<br><a href=""https://www.uclnc.org/home-library"" target=""_blank"">Website</a><br>"
"357","Athens Drive High School Library","Library","1420 Athens Dr Raleigh, NC 27606","https://www.wakegov.com/libraries/pages/default.aspx","(919) 233-4000",35.77013246,-78.7113,"Free",NA,"Library","<B>Athens Drive High School Library</B><br><B>Library</B><br><B>Charge: </B>Free<br><B>Address: </B>1420 Athens Dr Raleigh, NC 27606<br><a href=""https://www.wakegov.com/libraries/pages/default.aspx"" target=""_blank"">Website</a><br>"
"358","Cameron Village Regional Library","Library","1930 Clark Ave Raleigh, NC 27605","https://www.wakegov.com/libraries/pages/default.aspx","(919) 856-6710",35.7896636,-78.658,"Free",NA,"Library","<B>Cameron Village Regional Library</B><br><B>Library</B><br><B>Charge: </B>Free<br><B>Address: </B>1930 Clark Ave Raleigh, NC 27605<br><a href=""https://www.wakegov.com/libraries/pages/default.aspx"" target=""_blank"">Website</a><br>"
"359","Cary Regional Library","Library","315 Kildaire Farm Rd Cary, NC 27511","https://www.wakegov.com/libraries/pages/default.aspx","(919) 460-3350",35.78291748,-78.7804,"Free",NA,"Library","<B>Cary Regional Library</B><br><B>Library</B><br><B>Charge: </B>Free<br><B>Address: </B>315 Kildaire Farm Rd Cary, NC 27511<br><a href=""https://www.wakegov.com/libraries/pages/default.aspx"" target=""_blank"">Website</a><br>"
"360","East Regional Library","Library","946 Steeple Square Ct Knightdale, NC 27545","https://www.wakegov.com/libraries/pages/default.aspx","(919) 217-5300",35.80252961,-78.4874,"Free",NA,"Library","<B>East Regional Library</B><br><B>Library</B><br><B>Charge: </B>Free<br><B>Address: </B>946 Steeple Square Ct Knightdale, NC 27545<br><a href=""https://www.wakegov.com/libraries/pages/default.aspx"" target=""_blank"">Website</a><br>"
"361","Duraleigh Road Community Library","Library","5800 Duraleigh Rd Raleigh, NC 27612","https://www.wakegov.com/libraries/pages/default.aspx","(919) 881-1344",35.85672075,-78.7123,"Free",NA,"Library","<B>Duraleigh Road Community Library</B><br><B>Library</B><br><B>Charge: </B>Free<br><B>Address: </B>5800 Duraleigh Rd Raleigh, NC 27612<br><a href=""https://www.wakegov.com/libraries/pages/default.aspx"" target=""_blank"">Website</a><br>"
"362","Eva Perry Regional Library","Library","2100 Shepherds Vineyard Dr Apex, NC 27502","https://www.wakegov.com/libraries/pages/default.aspx","(919) 387-2100",35.7443442,-78.824,"Free",NA,"Library","<B>Eva Perry Regional Library</B><br><B>Library</B><br><B>Charge: </B>Free<br><B>Address: </B>2100 Shepherds Vineyard Dr Apex, NC 27502<br><a href=""https://www.wakegov.com/libraries/pages/default.aspx"" target=""_blank"">Website</a><br>"
"363","Express Library Fayetteville Street","Library","336 Fayetteville St Raleigh, NC 27601","https://www.wakegov.com/libraries/pages/default.aspx","(919) 856-6690",35.77642927,-78.6394,"Free",NA,"Library","<B>Express Library Fayetteville Street</B><br><B>Library</B><br><B>Charge: </B>Free<br><B>Address: </B>336 Fayetteville St Raleigh, NC 27601<br><a href=""https://www.wakegov.com/libraries/pages/default.aspx"" target=""_blank"">Website</a><br>"
"364","Fuquay-Varina Community Library","Library","271 Bramblehill Dr Fuquay-Varina, NC 27526","https://www.wakegov.com/libraries/pages/default.aspx","(919) 557-2788",35.58538975,-78.7802,"Free",NA,"Library","<B>Fuquay-Varina Community Library</B><br><B>Library</B><br><B>Charge: </B>Free<br><B>Address: </B>271 Bramblehill Dr Fuquay-Varina, NC 27526<br><a href=""https://www.wakegov.com/libraries/pages/default.aspx"" target=""_blank"">Website</a><br>"
"365","Green Road Community Library","Library","4101 Green Rd Raleigh, NC 27604","https://www.wakegov.com/libraries/pages/default.aspx","(919) 790-3200",35.83870653,-78.5916,"Free",NA,"Library","<B>Green Road Community Library</B><br><B>Library</B><br><B>Charge: </B>Free<br><B>Address: </B>4101 Green Rd Raleigh, NC 27604<br><a href=""https://www.wakegov.com/libraries/pages/default.aspx"" target=""_blank"">Website</a><br>"
"366","Holly Springs Community Library","Library","300 W Ballentine St Holly Springs, NC 27540","https://www.wakegov.com/libraries/pages/default.aspx","(919) 577-1660",35.6499447,-78.8363,"Free",NA,"Library","<B>Holly Springs Community Library</B><br><B>Library</B><br><B>Charge: </B>Free<br><B>Address: </B>300 W Ballentine St Holly Springs, NC 27540<br><a href=""https://www.wakegov.com/libraries/pages/default.aspx"" target=""_blank"">Website</a><br>"
"367","Leesville Community Library","Library","5105 Country Trl Raleigh, NC 27613","https://www.wakegov.com/libraries/pages/default.aspx","(919) 571-6661",35.88621418,-78.7156,"Free",NA,"Library","<B>Leesville Community Library</B><br><B>Library</B><br><B>Charge: </B>Free<br><B>Address: </B>5105 Country Trl Raleigh, NC 27613<br><a href=""https://www.wakegov.com/libraries/pages/default.aspx"" target=""_blank"">Website</a><br>"
"368","Middle Creek Community Library","Library","111 Middle Creek Park Ave Apex, NC 27539","https://www.wakegov.com/libraries/pages/default.aspx","(919) 890-7400",35.66897287,-78.7594,"Free",NA,"Library","<B>Middle Creek Community Library</B><br><B>Library</B><br><B>Charge: </B>Free<br><B>Address: </B>111 Middle Creek Park Ave Apex, NC 27539<br><a href=""https://www.wakegov.com/libraries/pages/default.aspx"" target=""_blank"">Website</a><br>"
"369","Morrisville Community Library","Library","310 Town Hall Dr Morrisville, NC 27560","https://www.wakegov.com/libraries/pages/default.aspx","(919) 463-8460",35.8247281,-78.8333,"Free",NA,"Library","<B>Morrisville Community Library</B><br><B>Library</B><br><B>Charge: </B>Free<br><B>Address: </B>310 Town Hall Dr Morrisville, NC 27560<br><a href=""https://www.wakegov.com/libraries/pages/default.aspx"" target=""_blank"">Website</a><br>"
"370","North Regional Library","Library","7009 Harps Mill Rd Raleigh, NC 27615","https://www.wakegov.com/libraries/pages/default.aspx","(919) 870-4000",35.87981066,-78.6282,"Free",NA,"Library","<B>North Regional Library</B><br><B>Library</B><br><B>Charge: </B>Free<br><B>Address: </B>7009 Harps Mill Rd Raleigh, NC 27615<br><a href=""https://www.wakegov.com/libraries/pages/default.aspx"" target=""_blank"">Website</a><br>"
"371","Northeast Regional Library","Library","14401 Green Elm Lane Raleigh, NC 27614","https://www.wakegov.com/libraries/pages/default.aspx","(919) 570-7166",35.95394692,-78.5454,"Free",NA,"Library","<B>Northeast Regional Library</B><br><B>Library</B><br><B>Charge: </B>Free<br><B>Address: </B>14401 Green Elm Lane Raleigh, NC 27614<br><a href=""https://www.wakegov.com/libraries/pages/default.aspx"" target=""_blank"">Website</a><br>"
"372","Olivia Raney Local History Library","Library","4016 Carya Dr Raleigh, NC 27610","https://www.wakegov.com/libraries/pages/default.aspx","(919) 250-1196",35.77006486,-78.5687,"Free",NA,"Library","<B>Olivia Raney Local History Library</B><br><B>Library</B><br><B>Charge: </B>Free<br><B>Address: </B>4016 Carya Dr Raleigh, NC 27610<br><a href=""https://www.wakegov.com/libraries/pages/default.aspx"" target=""_blank"">Website</a><br>"
"373","Richard B. Harrison Community Library","Library","1313 New Bern Ave Raleigh, NC 27610","https://www.wakegov.com/libraries/pages/default.aspx","(919) 856-5720",35.78000353,-78.6188,"Free",NA,"Library","<B>Richard B. Harrison Community Library</B><br><B>Library</B><br><B>Charge: </B>Free<br><B>Address: </B>1313 New Bern Ave Raleigh, NC 27610<br><a href=""https://www.wakegov.com/libraries/pages/default.aspx"" target=""_blank"">Website</a><br>"
"374","Southgate Community Library","Library","1601-14 Crosslink Rd Raleigh, NC 27610","https://www.wakegov.com/libraries/pages/default.aspx","(919) 856-6598",35.75395749,-78.6147,"Free",NA,"Library","<B>Southgate Community Library</B><br><B>Library</B><br><B>Charge: </B>Free<br><B>Address: </B>1601-14 Crosslink Rd Raleigh, NC 27610<br><a href=""https://www.wakegov.com/libraries/pages/default.aspx"" target=""_blank"">Website</a><br>"
"375","Southeast Regional Library","Library","908 7th Ave Garner, NC 27529","https://www.wakegov.com/libraries/pages/default.aspx","(919) 662-2250",35.70568854,-78.6215,"Free",NA,"Library","<B>Southeast Regional Library</B><br><B>Library</B><br><B>Charge: </B>Free<br><B>Address: </B>908 7th Ave Garner, NC 27529<br><a href=""https://www.wakegov.com/libraries/pages/default.aspx"" target=""_blank"">Website</a><br>"
"376","Wake Forest Community Library","Library","400 E Holding Ave Wake Forest, NC 27587","https://www.wakegov.com/libraries/pages/default.aspx","(919) 554-8498",35.9698382,-78.5098,"Free",NA,"Library","<B>Wake Forest Community Library</B><br><B>Library</B><br><B>Charge: </B>Free<br><B>Address: </B>400 E Holding Ave Wake Forest, NC 27587<br><a href=""https://www.wakegov.com/libraries/pages/default.aspx"" target=""_blank"">Website</a><br>"
"377","Wendell Community Library","Library","207 S Hollybrook Rd Wendell, NC 27591","https://www.wakegov.com/libraries/pages/default.aspx","(919) 365-2600",35.77912373,-78.3663,"Free",NA,"Library","<B>Wendell Community Library</B><br><B>Library</B><br><B>Charge: </B>Free<br><B>Address: </B>207 S Hollybrook Rd Wendell, NC 27591<br><a href=""https://www.wakegov.com/libraries/pages/default.aspx"" target=""_blank"">Website</a><br>"
"378","West Regional Library","Library","4000 Louis Stephens Dr Cary, NC 27519","https://www.wakegov.com/libraries/pages/default.aspx","(919) 463-8500",35.81323701,-78.8652,"Free",NA,"Library","<B>West Regional Library</B><br><B>Library</B><br><B>Charge: </B>Free<br><B>Address: </B>4000 Louis Stephens Dr Cary, NC 27519<br><a href=""https://www.wakegov.com/libraries/pages/default.aspx"" target=""_blank"">Website</a><br>"
"379","Zebulon Community Library","Library","1000 Dogwood Dr Zebulon, NC 27597","https://www.wakegov.com/libraries/pages/default.aspx","(919) 404-3610",35.83605788,-78.3223,"Free",NA,"Library","<B>Zebulon Community Library</B><br><B>Library</B><br><B>Charge: </B>Free<br><B>Address: </B>1000 Dogwood Dr Zebulon, NC 27597<br><a href=""https://www.wakegov.com/libraries/pages/default.aspx"" target=""_blank"">Website</a><br>"
"380","Warren County Memorial Library","Library","119 S Front St Warrenton, NC 27589","https://www.wcmlibrary.org/","(252) 257-4990",36.39790303,-78.1565,"Free",NA,"Library","<B>Warren County Memorial Library</B><br><B>Library</B><br><B>Charge: </B>Free<br><B>Address: </B>119 S Front St Warrenton, NC 27589<br><a href=""https://www.wcmlibrary.org/"" target=""_blank"">Website</a><br>"
"381","Fremont Public Library","Library","202 N Goldsboro St Fremont, NC 27830","https://wcpl.org","(919) 705-1893",35.54539494,-77.9743,"Free",NA,"Library","<B>Fremont Public Library</B><br><B>Library</B><br><B>Charge: </B>Free<br><B>Address: </B>202 N Goldsboro St Fremont, NC 27830<br><a href=""https://wcpl.org"" target=""_blank"">Website</a><br>"
"382","Pikeville Public Library","Library","107 W Main St Pikeville, NC 27863","https://wcpl.org","(919) 705-1892",35.49700462,-77.9838,"Free",NA,"Library","<B>Pikeville Public Library</B><br><B>Library</B><br><B>Charge: </B>Free<br><B>Address: </B>107 W Main St Pikeville, NC 27863<br><a href=""https://wcpl.org"" target=""_blank"">Website</a><br>"
"383","Steele Memorial Library","Library","119 W Main St Mount Olive, NC 28365","https://wcpl.org","(919) 299-8105",35.19565601,-78.0675,"Free",NA,"Library","<B>Steele Memorial Library</B><br><B>Library</B><br><B>Charge: </B>Free<br><B>Address: </B>119 W Main St Mount Olive, NC 28365<br><a href=""https://wcpl.org"" target=""_blank"">Website</a><br>"
"384","Wayne County Public Library (Main)","Library","1001 E Ash St Goldsboro, NC 27530","https://wcpl.org","(919) 735-1824",35.38146762,-77.9807,"Free",NA,"Library","<B>Wayne County Public Library (Main)</B><br><B>Library</B><br><B>Charge: </B>Free<br><B>Address: </B>1001 E Ash St Goldsboro, NC 27530<br><a href=""https://wcpl.org"" target=""_blank"">Website</a><br>"
"385","Black Creek Branch Library","Library","103 Central Ave Black Creek, NC 27813","https://www.wilsoncountypubliclibrary.org","(252) 237-3715",35.63514971,-77.9348,"Free",NA,"Library","<B>Black Creek Branch Library</B><br><B>Library</B><br><B>Charge: </B>Free<br><B>Address: </B>103 Central Ave Black Creek, NC 27813<br><a href=""https://www.wilsoncountypubliclibrary.org"" target=""_blank"">Website</a><br>"
"386","Crocker Branch Library","Library","114 S Main St Stantonsburg, NC 27883","https://www.wilsoncountypubliclibrary.org","(252) 238-3758",35.60686097,-77.8234,"Free",NA,"Library","<B>Crocker Branch Library</B><br><B>Library</B><br><B>Charge: </B>Free<br><B>Address: </B>114 S Main St Stantonsburg, NC 27883<br><a href=""https://www.wilsoncountypubliclibrary.org"" target=""_blank"">Website</a><br>"
"387","East Branch Library","Library","1006-C Ward Blvd Wilson, NC 27893","https://www.wilsoncountypubliclibrary.org","(252) 237-2627",35.7054644,-77.9179,"Free",NA,"Library","<B>East Branch Library</B><br><B>Library</B><br><B>Charge: </B>Free<br><B>Address: </B>1006-C Ward Blvd Wilson, NC 27893<br><a href=""https://www.wilsoncountypubliclibrary.org"" target=""_blank"">Website</a><br>"
"388","Elm City Branch Library","Library","114 N Railroad St Elm City, NC 27822","https://www.wilsoncountypubliclibrary.org","(252) 236-4269",35.8060565,-77.8617,"Free",NA,"Library","<B>Elm City Branch Library</B><br><B>Library</B><br><B>Charge: </B>Free<br><B>Address: </B>114 N Railroad St Elm City, NC 27822<br><a href=""https://www.wilsoncountypubliclibrary.org"" target=""_blank"">Website</a><br>"
"389","Lucama Branch Library","Library","103 E Spring St Lucama, NC 27851","https://www.wilsoncountypubliclibrary.org","(252) 239-0046",35.64434503,-78.0091,"Free",NA,"Library","<B>Lucama Branch Library</B><br><B>Library</B><br><B>Charge: </B>Free<br><B>Address: </B>103 E Spring St Lucama, NC 27851<br><a href=""https://www.wilsoncountypubliclibrary.org"" target=""_blank"">Website</a><br>"
"390","Wilson County Public Library (Main)","Library","249 Nash St W Wilson, NC 27893","https://www.wilsoncountypubliclibrary.org","(252) 237-5355",35.80753027,-77.8634,"Free",NA,"Library","<B>Wilson County Public Library (Main)</B><br><B>Library</B><br><B>Charge: </B>Free<br><B>Address: </B>249 Nash St W Wilson, NC 27893<br><a href=""https://www.wilsoncountypubliclibrary.org"" target=""_blank"">Website</a><br>"
"391","Wilson County Public Library Bookmobile","Library","249 W Nash St Wilson, NC 27893","https://www.wilsoncountypubliclibrary.org","(252) 237-5355",35.80753027,-77.8634,"Free",NA,"Library","<B>Wilson County Public Library Bookmobile</B><br><B>Library</B><br><B>Charge: </B>Free<br><B>Address: </B>249 W Nash St Wilson, NC 27893<br><a href=""https://www.wilsoncountypubliclibrary.org"" target=""_blank"">Website</a><br>"
"392","South Branch Library Library","Library","1550 S Campus Dr Creedmoor, NC 27522","https://www.granville.lib.nc.us/","(919) 528-1752",36.142286,-78.7222,"Free",NA,"Library","<B>South Branch Library Library</B><br><B>Library</B><br><B>Charge: </B>Free<br><B>Address: </B>1550 S Campus Dr Creedmoor, NC 27522<br><a href=""https://www.granville.lib.nc.us/"" target=""_blank"">Website</a><br>"
"393","Camden County Public Library Library","Library","104 Investor's Way Unit C-F Camden, NC 27921","https://www.youseemore.com/earl/default.asp","(252) 331-2543",36.329995,-76.1725,"Free",NA,"Library","<B>Camden County Public Library Library</B><br><B>Library</B><br><B>Charge: </B>Free<br><B>Address: </B>104 Investor's Way Unit C-F Camden, NC 27921<br><a href=""https://www.youseemore.com/earl/default.asp"" target=""_blank"">Website</a><br>"
"394","Enka Branch Library Library","Library","1404 Sandhill Rd Enka, NC 28728","https://www.buncombecounty.org/governing/depts/library/","(828) 250-4758",35.538931,-82.6521,"Free",NA,"Library","<B>Enka Branch Library Library</B><br><B>Library</B><br><B>Charge: </B>Free<br><B>Address: </B>1404 Sandhill Rd Enka, NC 28728<br><a href=""https://www.buncombecounty.org/governing/depts/library/"" target=""_blank"">Website</a><br>"
"395","Nantahala Community Library","Library","128 Nantahala School Rd Topton, NC 28781","https://www.fontanalib.org/","(828) 321-3020",35.2547684,-83.6331,"Free",NA,"Library","<B>Nantahala Community Library</B><br><B>Library</B><br><B>Charge: </B>Free<br><B>Address: </B>128 Nantahala School Rd Topton, NC 28781<br><a href=""https://www.fontanalib.org/"" target=""_blank"">Website</a><br>"
"396","Enfield Library","Library","103 S Railroad St Enfield, NC 27823","https://halifaxnc.libguides.com/hcl","(252) 445-5203",36.180766,-77.6658,"Free",NA,"Library","<B>Enfield Library</B><br><B>Library</B><br><B>Charge: </B>Free<br><B>Address: </B>103 S Railroad St Enfield, NC 27823<br><a href=""https://halifaxnc.libguides.com/hcl"" target=""_blank"">Website</a><br>"
"397","Mebane Public Library","Library","101 S First St Mebane, NC 27302","https://www.alamancelibraries.org/","(919) 563-6431",36.0966207,-79.2715,"Free",NA,"Library","<B>Mebane Public Library</B><br><B>Library</B><br><B>Charge: </B>Free<br><B>Address: </B>101 S First St Mebane, NC 27302<br><a href=""https://www.alamancelibraries.org/"" target=""_blank"">Website</a><br>"
"398","Hampstead Branch Library","Library","75 Library Dr Hampstead, NC 28443","https://penderpubliclibrary.org/home","(910) 270-4603",34.393417,-77.6801,"Free",NA,"Library","<B>Hampstead Branch Library</B><br><B>Library</B><br><B>Charge: </B>Free<br><B>Address: </B>75 Library Dr Hampstead, NC 28443<br><a href=""https://penderpubliclibrary.org/home"" target=""_blank"">Website</a><br>"
"399","Pleasure Island Library","Library","1401 North Lake Blvd, Ste 72 Carolina Beach, NC 28428","https://www.nhcgov.com/2628/Library","(910) 798-6380",34.050874,-77.901,"Free",NA,"Library","<B>Pleasure Island Library</B><br><B>Library</B><br><B>Charge: </B>Free<br><B>Address: </B>1401 North Lake Blvd, Ste 72 Carolina Beach, NC 28428<br><a href=""https://www.nhcgov.com/2628/Library"" target=""_blank"">Website</a><br>"
"400","Public Library Of Johnston County & Smithfield (Main)","Library","305 Market St Smithfield, NC 27577","https://www.pljcs.org/","(919) 934-8146",35.511298,-78.3457,"Free",NA,"Library","<B>Public Library Of Johnston County & Smithfield (Main)</B><br><B>Library</B><br><B>Charge: </B>Free<br><B>Address: </B>305 Market St Smithfield, NC 27577<br><a href=""https://www.pljcs.org/"" target=""_blank"">Website</a><br>"
"401","Public Library Of Johnston County & Smithfield Bookmobile","Library","305 Market St Smithfield, NC 27577","https://www.pljcs.org/","(919) 934-8146",35.511298,-78.3457,"Free",NA,"Library","<B>Public Library Of Johnston County & Smithfield Bookmobile</B><br><B>Library</B><br><B>Charge: </B>Free<br><B>Address: </B>305 Market St Smithfield, NC 27577<br><a href=""https://www.pljcs.org/"" target=""_blank"">Website</a><br>"
"402","Gates County Library","Library","14 Cypress Creek Dr Gatesville, NC 27938","https://gatescountync.gov/index.asp?SEC=9590E116-3F9E-415D-ADB4-9DB10E6E7ED4&DE=A8BC9E69-BCE0-4F2A-920C-CAC8E2E9BE86","(252) 357-0110",36.446421,-76.711,"Free",NA,"Library","<B>Gates County Library</B><br><B>Library</B><br><B>Charge: </B>Free<br><B>Address: </B>14 Cypress Creek Dr Gatesville, NC 27938<br><a href=""https://gatescountync.gov/index.asp?SEC=9590E116-3F9E-415D-ADB4-9DB10E6E7ED4&DE=A8BC9E69-BCE0-4F2A-920C-CAC8E2E9BE86"" target=""_blank"">Website</a><br>"
"403","Avery County Library","Library","150 Library Pl Newland, NC 28657","https://www.amyregionallibrary.org/","(828) 733-9393",36.088529,-81.9268,"Free",NA,"Library","<B>Avery County Library</B><br><B>Library</B><br><B>Charge: </B>Free<br><B>Address: </B>150 Library Pl Newland, NC 28657<br><a href=""https://www.amyregionallibrary.org/"" target=""_blank"">Website</a><br>"
"404","Rube Mccray Memorial Library","Library","301 Fleming Dr Lake Waccamaw, NC 28450","https://ccplnc.weebly.com","(910) 646-4616",34.3189802,-78.5229,"Free",NA,"Library","<B>Rube Mccray Memorial Library</B><br><B>Library</B><br><B>Charge: </B>Free<br><B>Address: </B>301 Fleming Dr Lake Waccamaw, NC 28450<br><a href=""https://ccplnc.weebly.com"" target=""_blank"">Website</a><br>"
"405","Youngsville Branch Library","Library","218 US 1A Hwy S Youngsville, NC 27596","https://www.franklincountync.gov/county_services/library/index.php","(919) 556-1612",36.020049,-78.4858,"Free",NA,"Library","<B>Youngsville Branch Library</B><br><B>Library</B><br><B>Charge: </B>Free<br><B>Address: </B>218 US 1A Hwy S Youngsville, NC 27596<br><a href=""https://www.franklincountync.gov/county_services/library/index.php"" target=""_blank"">Website</a><br>"
"406","Walnut Cove Public Library","Library","106 W Fifth St Walnut Cove, NC 27052","https://www.nwrlibrary.org/","(336) 591-7496",36.298775,-80.1426,"Free",NA,"Library","<B>Walnut Cove Public Library</B><br><B>Library</B><br><B>Charge: </B>Free<br><B>Address: </B>106 W Fifth St Walnut Cove, NC 27052<br><a href=""https://www.nwrlibrary.org/"" target=""_blank"">Website</a><br>"
